{"bbox":[103.82,1.2,103.885,1.265],"features":[{"geometry":{"coordinates":[[[103.86065857337927,1.265],[103.86122280695864,1.265],[103.8608496,1.2647333],[103.86065857337927,1.265]]],"type":"Polygon"},"properties":{"layer":"land"},"type":"Feature"},{"geometry":{"coordinates":[[[103.8454442,1.2321289],[103.8454573,1.2321553],[103.8454824,1.2321429],[103.8454692,1.2321164],[103.8454442,1.2321289]]],"type":"Polygon"},"properties":{"layer":"land"},"type":"Feature"},{"geometry":{"coordinates":[[[103.8422634873975,1.265],[103.84472381713299,1.265],[103.8467367,1.2624697],[103.8467406,1.2623558],[103.8460126,1.2615762],[103.8459326,1.2615662],[103.8422634873975,1.265]]],"type":"Polygon"},"properties":{"layer":"land"},"type":"Feature"},{"geometry":{"coordinates":[[[103.8450359,1.2384618],[103.8450681,1.2384618],[103.8450976,1.2384511],[103.8451338,1.2384176],[103.8451378,1.2383666],[103.8451096,1.2383586],[103.845052,1.2383975],[103.8450359,1.2384618]]],"type":"Polygon"},"properties":{"layer":"land"},"type":"Feature"},{"geometry":{"coordinates":[[[103.8473645119259,1.265],[103.85158634305299,1.265],[103.8515877,1.2635682],[103.8512267,1.2635644],[103.850677,1.2630527],[103.8520924,1.261483],[103.8512672,1.2607513],[103.8512007,1.2607438],[103.8473645119259,1.265]]],"type":"Polygon"},"properties":{"layer":"land"},"type":"Feature"},{"geometry":{"coordinates":[[[103.8595316,1.2254347],[103.8598535,1.2254455],[103.8604007,1.2252148],[103.8604597,1.2252202],[103.8606313,1.2250808],[103.8605991,1.2250647],[103.8604918,1.2251344],[103.8604543,1.2251344],[103.8599836,1.2253275],[103.8598267,1.2253918],[103.8595316,1.2254347]]],"type":"Polygon"},"properties":{"layer":"land"},"type":"Feature"},{"geometry":{"coordinates":[[[103.8253585,1.2263826],[103.8253592,1.2264094],[103.8253739,1.2264322],[103.8254041,1.226457],[103.8254437,1.2264564],[103.8254678,1.226441],[103.8254658,1.2264188],[103.8254618,1.2263954],[103.8254249,1.226382],[103.8253813,1.2263645],[103.8253585,1.2263826]]],"type":"Polygon"},"properties":{"layer":"land"},"type":"Feature"},{"geometry":{"coordinates":[[[103.8607601,1.2217931],[103.8607976,1.221836],[103.8608727,1.221777],[103.8609156,1.221702],[103.8611999,1.221348],[103.8613662,1.2212622],[103.8613931,1.2212139],[103.8613716,1.2211871],[103.8611946,1.221289],[103.8608834,1.2216698],[103.8607601,1.2217931]]],"type":"Polygon"},"properties":{"layer":"land"},"type":"Feature"},{"geometry":{"coordinates":[[[103.8455026,1.2379966],[103.8455267,1.2380247],[103.8455804,1.238018],[103.8456514,1.2379845],[103.8457654,1.2379309],[103.8459237,1.2378947],[103.8460886,1.2377834],[103.8461477,1.2377244],[103.8461168,1.2376989],[103.846035,1.2377083],[103.8459317,1.2377298],[103.8458218,1.2377646],[103.8457319,1.2378276],[103.845571,1.2379269],[103.8455026,1.2379966]]],"type":"Polygon"},"properties":{"layer":"land"},"type":"Feature"},{"geometry":{"coordinates":[[[103.8446148,1.2386361],[103.8446148,1.2386831],[103.8446456,1.2387099],[103.8447355,1.2387193],[103.8448012,1.2387153],[103.8448575,1.2386791],[103.8448602,1.2386415],[103.844934,1.2386147],[103.8449728,1.2385852],[103.8450131,1.2385383],[103.8449876,1.2385101],[103.8449554,1.2385128],[103.8449246,1.238549],[103.8448696,1.2385999],[103.8447744,1.2386254],[103.8446899,1.2386093],[103.8446148,1.2386361]]],"type":"Polygon"},"properties":{"layer":"land"},"type":"Feature"},{"geometry":{"coordinates":[[[103.8467778,1.2229232],[103.8467834,1.2229364],[103.846857,1.222927],[103.8469297,1.2229062],[103.846991,1.2228808],[103.8470542,1.2228515],[103.8471071,1.2228289],[103.8471514,1.2228034],[103.8471693,1.222793],[103.8471769,1.2227751],[103.8471703,1.2227628],[103.8471439,1.2227666],[103.8471033,1.2227883],[103.8470438,1.2228232],[103.8469721,1.2228534],[103.8469127,1.2228789],[103.8468608,1.2228902],[103.8468051,1.2229015],[103.8467778,1.2229232]]],"type":"Polygon"},"properties":{"layer":"land"},"type":"Feature"},{"geometry":{"coordinates":[[[103.8590543,1.2206615],[103.8590811,1.2206883],[103.8591294,1.2206669],[103.8593493,1.2203665],[103.8594191,1.2201413],[103.8594137,1.2200555],[103.8593869,1.2199107],[103.8593493,1.2197927],[103.8593172,1.2196908],[103.8592903,1.2196961],[103.8593011,1.2198088],[103.8593279,1.2199053],[103.8593547,1.2200233],[103.8593708,1.2201359],[103.8592957,1.2203236],[103.8592742,1.2203719],[103.8592152,1.2204148],[103.8592045,1.2204738],[103.8591562,1.2205757],[103.8590543,1.2206615]]],"type":"Polygon"},"properties":{"layer":"land"},"type":"Feature"},{"geometry":{"coordinates":[[[103.82,1.263061597536946],[103.82,1.265],[103.8278628854076,1.265],[103.824558,1.263132829422742],[103.8245183,1.2631104],[103.8243814,1.2630569],[103.824123,1.2630553],[103.823915,1.263055],[103.8237801,1.263055],[103.8236248,1.2630549],[103.8235944,1.2630546],[103.8234119,1.2630574],[103.8233265,1.2630552],[103.8232799,1.2630534],[103.8207749,1.2630568],[103.8207323,1.263059],[103.8205117,1.2630598],[103.8204784,1.2630598],[103.8201282,1.2630615],[103.8200911,1.2630607],[103.82,1.263061597536946]]],"type":"Polygon"},"properties":{"layer":"land"},"type":"Feature"},{"geometry":{"coordinates":[[[103.8358795,1.2127132],[103.8358875,1.2127339],[103.8359135,1.2127569],[103.8361455,1.2129185],[103.8363018,1.2130733],[103.836444,1.2132738],[103.8365351,1.2134897],[103.8365386,1.2135176],[103.8365574,1.2135381],[103.8365899,1.2135435],[103.8366124,1.2135401],[103.8366369,1.2135254],[103.83665,1.2135049],[103.8366557,1.2134831],[103.836652,1.2134613],[103.8366243,1.2134099],[103.8365506,1.2132718],[103.8364607,1.2131115],[103.8362179,1.2128521],[103.835943,1.2126658],[103.8359177,1.2126636],[103.8358942,1.2126756],[103.8358842,1.2126924],[103.8358795,1.2127132]]],"type":"Polygon"},"properties":{"layer":"land"},"type":"Feature"},{"geometry":{"coordinates":[[[103.82,1.2489460764150881],[103.82,1.2589661778614445],[103.8201215,1.2590154],[103.8200468,1.2592016],[103.8200997,1.2592193],[103.8205339,1.2589187],[103.8206759,1.2587403],[103.8207679,1.2585726],[103.8211974,1.258345],[103.8212597,1.2583845],[103.8213244,1.2583753],[103.8213543,1.2583348],[103.8213678,1.2582986],[103.8216023,1.2581913],[103.8218284,1.2581631],[103.8218479,1.2584739],[103.8229823,1.2584082],[103.8229857,1.2585075],[103.8231531,1.2585011],[103.8231655,1.2588902],[103.823246,1.2588888],[103.8234532,1.2588851],[103.8235124,1.2588871],[103.8234985,1.2582572],[103.8234494,1.257829],[103.8233216,1.2574768],[103.8234042,1.2573228],[103.8234841,1.2569808],[103.8234981,1.2568972],[103.8235275,1.2568184],[103.8235803,1.25676],[103.8237599,1.2566689],[103.8238499,1.256564],[103.8238756,1.2564181],[103.8240464,1.2563348],[103.8244,1.2560946],[103.8243935,1.2559758],[103.825189,1.255287],[103.8259261,1.2549902],[103.8271716,1.2546277],[103.8281747,1.25456],[103.8288317,1.2545269],[103.8294073,1.2545033],[103.8296965,1.254523],[103.8299139,1.2545648],[103.8301391,1.2545816],[103.8308644,1.2547623],[103.8318338,1.2547138],[103.8321565,1.2546977],[103.832979,1.2544479],[103.8340626,1.2535831],[103.8344292,1.2533869],[103.8349306,1.2532689],[103.8354706,1.2532374],[103.8360276,1.2531861],[103.836351,1.2531911],[103.8366451,1.2532075],[103.8369361,1.2532813],[103.8371176,1.2531861],[103.837253,1.2532437],[103.8373257,1.2533971],[103.8374171,1.2534779],[103.8375389,1.2535109],[103.8377261,1.2536303],[103.8379226,1.2538096],[103.8382866,1.2540926],[103.8391386,1.2540207],[103.8394648,1.2539177],[103.840089,1.2536887],[103.8401914,1.2535657],[103.8404002,1.2535201],[103.8407027,1.2535712],[103.8413765,1.2537377],[103.8416019,1.253686],[103.841765,1.2535744],[103.8418766,1.2532398],[103.8418445,1.2529343],[103.8417886,1.2522449],[103.8418258,1.2521619],[103.8419258,1.2520975],[103.842049,1.2520679],[103.8422203,1.2521072],[103.8422994,1.2522368],[103.8423874,1.2522668],[103.8431062,1.2522851],[103.8436225,1.2523657],[103.8442031,1.2524982],[103.8445556,1.2525918],[103.8446653,1.2526198],[103.8447169,1.2526723],[103.8448739,1.2528664],[103.8451817,1.253046],[103.8455514,1.2531701],[103.8458752,1.253237],[103.8464376,1.2532354],[103.8474098,1.2526902],[103.8484137,1.2520961],[103.8483164,1.251617],[103.848244,1.2512187],[103.84809,1.25086],[103.8479267,1.2506115],[103.8477689,1.2503868],[103.8474416,1.2499412],[103.8470951,1.2493869],[103.8468038,1.2488985],[103.8464085,1.2482714],[103.8459399,1.2475651],[103.8453149,1.2467659],[103.8448815,1.2462253],[103.8445545,1.2456198],[103.8442759,1.2451697],[103.8438823,1.2446539],[103.8432037,1.2439743],[103.8429336,1.2437083],[103.8420826,1.2429854],[103.8418615,1.2426791],[103.8415699,1.2422848],[103.8415226,1.2422813],[103.8415032,1.2423181],[103.8409947,1.2419423],[103.8409508,1.2418218],[103.8407839,1.2416169],[103.8405252,1.2413132],[103.8400136,1.2407362],[103.8399082,1.2406249],[103.8397613,1.2404646],[103.8395163,1.2402738],[103.8383575,1.2395959],[103.8380314,1.2393299],[103.8374992,1.2388751],[103.8372803,1.2387399],[103.8370272,1.2386778],[103.8364006,1.2385919],[103.8364006,1.2386692],[103.836598,1.2387636],[103.8367738,1.2388266],[103.836907,1.238918],[103.8370615,1.2390982],[103.8371242,1.2393018],[103.8371251,1.2395894],[103.8367339,1.2395894],[103.8367217,1.2394024],[103.8366385,1.2392428],[103.8364778,1.2391411],[103.8361632,1.2390382],[103.8359028,1.2390296],[103.8354624,1.2390972],[103.8351046,1.2390553],[103.8347269,1.238858],[103.8338943,1.2380942],[103.8332592,1.2378282],[103.8329043,1.2377975],[103.8324734,1.2378969],[103.8319374,1.2382487],[103.8316472,1.2384072],[103.8314213,1.2386092],[103.8311857,1.2388491],[103.8305326,1.2395397],[103.830408,1.2396287],[103.8303386,1.2396782],[103.8301378,1.2397534],[103.8299905,1.2397621],[103.8299264,1.2397364],[103.829835,1.2396041],[103.8298058,1.239609],[103.8297917,1.2396652],[103.8298092,1.2397147],[103.8298213,1.2397487],[103.8298448,1.2398151],[103.8297725,1.2400037],[103.8297608,1.2401047],[103.8298145,1.240123],[103.8300197,1.2399709],[103.8302945,1.2399293],[103.830322,1.2399414],[103.8304118,1.2401184],[103.8304433,1.2402679],[103.8304406,1.2403859],[103.8304044,1.2405823],[103.8302924,1.2408203],[103.830151,1.241016],[103.8300021,1.2411501],[103.8298552,1.2412359],[103.8296514,1.2413124],[103.829473,1.2413345],[103.8291471,1.2413264],[103.8291022,1.2413378],[103.8290559,1.241366],[103.8290285,1.2414216],[103.8290365,1.2416409],[103.8290318,1.2417696],[103.8288356,1.2422781],[103.8285443,1.2426022],[103.8282533,1.2427725],[103.8279408,1.2428489],[103.8277598,1.2428502],[103.8276149,1.242802],[103.8274594,1.2427443],[103.8273561,1.2426505],[103.8272944,1.2425553],[103.8272625,1.2424764],[103.8272542,1.2424316],[103.8272536,1.2424069],[103.8272936,1.2424145],[103.8273996,1.2423882],[103.8275257,1.2422132],[103.8273084,1.2419857],[103.8271395,1.2418785],[103.8271342,1.2420197],[103.8265215,1.2427109],[103.8261438,1.2431914],[103.8257662,1.2435775],[103.8256289,1.243629],[103.8256031,1.2437406],[103.8250881,1.244264],[103.8242104,1.2451512],[103.8240147,1.2453686],[103.8237469,1.2456661],[103.8235666,1.2458463],[103.8235292,1.2458218],[103.823498,1.2458377],[103.8235157,1.2459129],[103.8235283,1.2461022],[103.8234845,1.2462611],[103.8234447,1.2463248],[103.8234263,1.2463543],[103.8233164,1.2465073],[103.8233492,1.2465701],[103.8234145,1.2465722],[103.8235486,1.2464313],[103.823659,1.2463153],[103.8237304,1.2463081],[103.82378,1.2462746],[103.8237921,1.2462264],[103.823778,1.2461942],[103.8237626,1.2461593],[103.8237712,1.2461354],[103.8238471,1.2462284],[103.8239108,1.2463435],[103.8240298,1.2466347],[103.8240339,1.246826],[103.8240087,1.2470348],[103.8239591,1.2472038],[103.8238813,1.2473982],[103.8237839,1.2475495],[103.8236479,1.2476865],[103.8234924,1.2478031],[103.8232724,1.2479157],[103.8230605,1.2479607],[103.8228473,1.2479694],[103.8226126,1.2479654],[103.8224678,1.2479721],[103.8223779,1.2480069],[103.8223176,1.2480632],[103.8222914,1.2481503],[103.8221177,1.2483763],[103.8220581,1.2484474],[103.8220306,1.2484822],[103.8219877,1.2484862],[103.8219501,1.2484903],[103.8219052,1.2485278],[103.8218891,1.248566],[103.8218608,1.2486686],[103.8218362,1.2487579],[103.8217963,1.2489133],[103.8216863,1.2491232],[103.8215354,1.2493516],[103.8214391,1.2494576],[103.8213104,1.2495703],[103.8211615,1.2496547],[103.821006,1.2497251],[103.8208531,1.2497566],[103.8207203,1.2497633],[103.8205755,1.2497365],[103.8204373,1.2496869],[103.8203381,1.2496078],[103.820242,1.2494419],[103.8203485,1.2493745],[103.8204938,1.2492695],[103.8204858,1.2491904],[103.8202491,1.2491165],[103.8200409,1.2490136],[103.82,1.2489460764150881]]],"type":"Polygon"},"properties":{"layer":"land"},"type":"Feature"},{"geometry":{"coordinates":[[[103.828144,1.2411897],[103.8281869,1.2412815],[103.8282479,1.2413533],[103.8283499,1.2414009],[103.8284203,1.2414102],[103.8284324,1.2414053],[103.8284826,1.2413848],[103.8285088,1.2413405],[103.8285007,1.2412949],[103.8284927,1.2412659],[103.8284605,1.2412373],[103.8283971,1.2412348],[103.8284044,1.2411826],[103.8284592,1.2411019],[103.828548,1.2410402],[103.8286771,1.2409859],[103.8287428,1.2409537],[103.828839,1.2408548],[103.8289299,1.240762],[103.8290251,1.2406926],[103.8290244,1.2407291],[103.8290385,1.2407687],[103.8290794,1.2408069],[103.8291331,1.2408062],[103.8291733,1.2407754],[103.8291974,1.2407023],[103.8291854,1.2406205],[103.8291244,1.240522],[103.8290781,1.240475],[103.8290285,1.2404556],[103.8289815,1.2404455],[103.8289323,1.2404521],[103.8288306,1.2405176],[103.8282513,1.2409477],[103.8281836,1.2410147],[103.8281581,1.2410958],[103.828144,1.2411897]]],"type":"Polygon"},"properties":{"layer":"land"},"type":"Feature"},{"geometry":{"coordinates":[[[103.8211097,1.2482218],[103.8211802,1.248339],[103.8212319,1.2484122],[103.8213153,1.2484652],[103.8214015,1.2484917],[103.8214328,1.2484766],[103.8214583,1.2484434],[103.8214375,1.2484046],[103.8213788,1.2483781],[103.8213068,1.2483478],[103.8213876,1.2482507],[103.8215267,1.248132],[103.8216382,1.2480735],[103.8217255,1.2479888],[103.8217872,1.2479312],[103.8218529,1.2479064],[103.8219052,1.2478816],[103.8219394,1.2478333],[103.8219858,1.2477578],[103.8221196,1.2475635],[103.8221793,1.2475313],[103.8222153,1.2474972],[103.8222352,1.2474394],[103.8222662,1.2473945],[103.8222895,1.2473516],[103.8223096,1.2473186],[103.8223303,1.2472932],[103.8223574,1.2472661],[103.8223735,1.2472528],[103.8224029,1.2472538],[103.8224796,1.2472879],[103.8225563,1.2473495],[103.8225952,1.2473736],[103.8226397,1.2473675],[103.8226568,1.2473419],[103.8226549,1.2473002],[103.8226245,1.2472642],[103.8225534,1.247217],[103.822473,1.247179],[103.8223877,1.2471689],[103.8222892,1.2471733],[103.8221802,1.247214],[103.8221043,1.2472667],[103.821843,1.2474697],[103.8216901,1.2475789],[103.8213655,1.2478173],[103.8213086,1.2478648],[103.8212577,1.2479072],[103.8212452,1.2479177],[103.8211665,1.248003],[103.8211102,1.2481136],[103.8211097,1.2482218]]],"type":"Polygon"},"properties":{"layer":"land"},"type":"Feature"},{"geometry":{"coordinates":[[[103.8455312,1.2321246],[103.8456586,1.2323809],[103.8458942,1.2324801],[103.8470793,1.2320946],[103.8477689,1.2318903],[103.8482722,1.2317515],[103.848452,1.231683],[103.8485984,1.2316121],[103.8486583,1.231572],[103.8487046,1.2315297],[103.8487258,1.23149],[103.8487377,1.2314274],[103.8487231,1.2312004],[103.8486867,1.2309708],[103.848657,1.2308725],[103.8486122,1.2307973],[103.8485622,1.2307373],[103.8494995,1.2296714],[103.8495452,1.2296918],[103.84961,1.2297308],[103.8496625,1.2297699],[103.8497079,1.2298199],[103.8497677,1.2298979],[103.8497988,1.2299604],[103.8498289,1.2300355],[103.8498455,1.2301052],[103.8501107,1.2303017],[103.8503556,1.2303778],[103.8504416,1.2302272],[103.8507902,1.2301948],[103.8511619,1.2302517],[103.8517156,1.2306119],[103.8515107,1.2309429],[103.8511151,1.2311708],[103.8510868,1.2311871],[103.8511898,1.231392],[103.8513256,1.231529],[103.8516178,1.2313709],[103.8519096,1.2314778],[103.8521494,1.2315393],[103.8533844,1.2318008],[103.85374,1.2318566],[103.854021,1.2318783],[103.8550887,1.2319027],[103.8553224,1.2319147],[103.8569381,1.232053],[103.857184,1.2320987],[103.8574104,1.2321616],[103.8575622,1.2322186],[103.8576941,1.2322861],[103.8578025,1.2323188],[103.8579103,1.2323225],[103.8580016,1.2323021],[103.8581003,1.2322519],[103.8581709,1.2322028],[103.858231,1.232135],[103.8582978,1.2320347],[103.8583271,1.2319156],[103.8583655,1.2313499],[103.8583677,1.2312479],[103.8583488,1.2311321],[103.858289,1.2309966],[103.8580739,1.2306512],[103.8579712,1.2304581],[103.8577678,1.2300247],[103.8576734,1.229814],[103.8575918,1.2296857],[103.8575139,1.2295938],[103.8573186,1.2294176],[103.857169,1.2293052],[103.8570376,1.2292362],[103.8564441,1.2290068],[103.8551249,1.2285612],[103.8548549,1.2285139],[103.8548354,1.2285266],[103.854831,1.2285523],[103.8548448,1.2285717],[103.8551163,1.2286227],[103.8552631,1.2286728],[103.8551957,1.2288664],[103.8551222,1.2290101],[103.8550361,1.2291024],[103.8549251,1.2291948],[103.8547944,1.2292635],[103.8546121,1.2293002],[103.8544747,1.2292912],[103.8542839,1.2292498],[103.8540587,1.2291662],[103.8538598,1.2290536],[103.8537246,1.2289364],[103.8535794,1.2287496],[103.8534686,1.2285422],[103.8533725,1.2282913],[103.853312,1.2280171],[103.8532754,1.2277108],[103.8532591,1.2274258],[103.8532657,1.2272969],[103.8533128,1.2269352],[103.8533764,1.2267007],[103.8534595,1.2264591],[103.8535274,1.2262938],[103.8536076,1.2261333],[103.8537185,1.2259436],[103.8538502,1.2257604],[103.8539541,1.2256418],[103.8540784,1.2255278],[103.8542271,1.2254394],[103.8543784,1.2253642],[103.854502,1.2253241],[103.8546218,1.2253073],[103.8547193,1.2253106],[103.8548238,1.225326],[103.8549416,1.2253501],[103.8550295,1.2253699],[103.8551342,1.2254274],[103.8552378,1.2255069],[103.8553347,1.2255942],[103.8554151,1.2256941],[103.855475,1.2257984],[103.8555365,1.2259454],[103.8550888,1.2260613],[103.8550718,1.2260863],[103.8550796,1.2261167],[103.8551055,1.2261297],[103.855751,1.2259563],[103.855823,1.2259049],[103.8558703,1.2258169],[103.8558896,1.2257542],[103.8559018,1.2256632],[103.8558942,1.225502],[103.8558467,1.224871],[103.8558555,1.2247551],[103.8558781,1.224651],[103.8559115,1.224539],[103.8559541,1.2244183],[103.856293,1.2238065],[103.8563015,1.2237785],[103.8563022,1.2237517],[103.8562891,1.2237392],[103.8562639,1.2237303],[103.8562438,1.223742],[103.856216,1.2237892],[103.8561908,1.223762],[103.8561751,1.2237387],[103.8561699,1.2237147],[103.8561654,1.223661],[103.8561719,1.2235988],[103.85619,1.2235593],[103.8562276,1.2235098],[103.8563489,1.2234027],[103.8570901,1.2228763],[103.8572779,1.2227223],[103.857585,1.2223996],[103.8580549,1.2218615],[103.8581008,1.2217142],[103.8581474,1.221617],[103.8582645,1.2215096],[103.8582482,1.2211798],[103.8582765,1.2208657],[103.8582589,1.2208212],[103.85815,1.2207645],[103.8580026,1.2206529],[103.8578419,1.2205003],[103.8577049,1.2203374],[103.8575887,1.2201885],[103.8574756,1.2200025],[103.8574146,1.219867],[103.8573718,1.2198141],[103.8573316,1.2197258],[103.8573023,1.2196435],[103.8572967,1.2195454],[103.85733,1.2194699],[103.857517,1.2192779],[103.8576564,1.2191435],[103.857579,1.2189081],[103.8576434,1.2184254],[103.8576863,1.2182109],[103.857858,1.2180393],[103.8580451,1.2179503],[103.8582871,1.2181894],[103.85833,1.2182967],[103.8584159,1.2182431],[103.8581047,1.2179105],[103.8579331,1.2177926],[103.8577185,1.2177389],[103.8575039,1.217696],[103.8573215,1.2176638],[103.8571284,1.2176638],[103.857017,1.2176462],[103.8573215,1.2177333],[103.8573269,1.217803],[103.8573108,1.2179049],[103.8572089,1.2180336],[103.8570909,1.2181463],[103.8568763,1.2182374],[103.8566564,1.2182911],[103.8564579,1.2183393],[103.8561199,1.2185485],[103.8559268,1.218763],[103.8558195,1.2190258],[103.85568,1.2193798],[103.8554494,1.2194978],[103.8551811,1.219605],[103.8548646,1.2199537],[103.8545696,1.2202165],[103.8543979,1.2204524],[103.8542048,1.220667],[103.8538883,1.2208654],[103.853722,1.2211765],[103.8535933,1.2213749],[103.8534323,1.2214929],[103.8532607,1.2215894],[103.8530622,1.2218415],[103.8529013,1.2220775],[103.8527618,1.2223081],[103.8526974,1.2224905],[103.8526023,1.2226764],[103.8525448,1.2226691],[103.8524955,1.2226514],[103.8524592,1.2226242],[103.852422,1.2225805],[103.852005,1.2219233],[103.851976,1.2219259],[103.851871,1.222045],[103.8518617,1.2220647],[103.8522733,1.2227159],[103.8522907,1.2227616],[103.8522873,1.2228098],[103.8522609,1.2228613],[103.8522092,1.2229125],[103.852263,1.2229728],[103.8522601,1.2231468],[103.8521389,1.2236204],[103.8522828,1.2236643],[103.8521712,1.2243006],[103.8521355,1.224485],[103.8519656,1.2247684],[103.8516866,1.2245663],[103.8513073,1.2250351],[103.8509273,1.2251223],[103.8507645,1.2252192],[103.8506089,1.2253414],[103.8504561,1.2255447],[103.8503756,1.2256867],[103.8503799,1.2257272],[103.8502724,1.2257929],[103.8503746,1.2259873],[103.850418,1.2259654],[103.8507032,1.2263985],[103.8506951,1.2264484],[103.8510613,1.2265397],[103.8516674,1.2260516],[103.8519678,1.2259873],[103.8522575,1.22625],[103.8521877,1.2279084],[103.8516779,1.2278562],[103.8507722,1.2277986],[103.8507579,1.2277993],[103.8507375,1.2278002],[103.8502364,1.2278321],[103.8502673,1.2282881],[103.8502631,1.2290403],[103.8500151,1.2291276],[103.8498489,1.228701],[103.8496559,1.2283226],[103.8495187,1.228203],[103.8493189,1.2280974],[103.8491302,1.2281432],[103.8490468,1.2280211],[103.8490669,1.2279646],[103.8486882,1.2275004],[103.8484178,1.227104],[103.8484423,1.2270878],[103.8483338,1.2269268],[103.8483055,1.226943],[103.8481914,1.2267726],[103.8481107,1.2266947],[103.8474578,1.2264266],[103.8472472,1.2263891],[103.846976,1.2264067],[103.8468178,1.2265558],[103.84679,1.2271494],[103.8469385,1.2273117],[103.8472068,1.2273239],[103.8474235,1.2274985],[103.8475553,1.2275852],[103.8477044,1.2276564],[103.8478508,1.2277114],[103.8479772,1.2277425],[103.8482224,1.2277783],[103.8482718,1.2278107],[103.8487531,1.2281605],[103.848953,1.2280843],[103.8490389,1.2282087],[103.8488912,1.2283564],[103.8490391,1.2288934],[103.849272,1.22932],[103.8494062,1.2295325],[103.8494236,1.2295601],[103.8485119,1.2305839],[103.8484268,1.2306775],[103.8482008,1.2308489],[103.8480962,1.2307296],[103.847923,1.2304863],[103.8478429,1.2303521],[103.8480855,1.2302327],[103.8481044,1.2302025],[103.8480923,1.2301779],[103.8480651,1.230176],[103.8478057,1.2302794],[103.8477814,1.2302232],[103.8477345,1.2301831],[103.8476743,1.2301782],[103.8475859,1.2301976],[103.8474727,1.2302444],[103.8474124,1.2302774],[103.8473534,1.2303276],[103.8472771,1.2304117],[103.8472,1.2305064],[103.8469293,1.2308119],[103.8467371,1.2310105],[103.8464588,1.2312652],[103.8461818,1.2314842],[103.8455968,1.231882],[103.8455312,1.2321246]]],"type":"Polygon"},"properties":{"layer":"land"},"type":"Feature"},{"geometry":{"coordinates":[[[103.8315972,1.2163677],[103.8316294,1.2165381],[103.8316595,1.216597],[103.8317165,1.216603],[103.8317375,1.2165625],[103.8317354,1.2164857],[103.8317749,1.2162772],[103.8319519,1.2163027],[103.8321182,1.2164126],[103.8322121,1.216536],[103.8322778,1.2167331],[103.8322846,1.2168785],[103.8322724,1.216892],[103.8321457,1.216898],[103.8320731,1.2169333],[103.8320331,1.2169322],[103.8319715,1.2169052],[103.8319433,1.2169112],[103.8319212,1.2169354],[103.8319226,1.2169655],[103.8319481,1.2170119],[103.8320698,1.2170755],[103.8322711,1.2170875],[103.8324016,1.2170722],[103.8331689,1.2168484],[103.8332187,1.2168082],[103.8333153,1.216751],[103.833474,1.2166674],[103.8335692,1.2165292],[103.8336342,1.2163165],[103.8336434,1.2162772],[103.8336308,1.2162412],[103.8336192,1.2161653],[103.8335413,1.2161027],[103.8334472,1.2158334],[103.8334084,1.2156966],[103.8333835,1.2155592],[103.8333139,1.2154057],[103.8331872,1.2152642],[103.832774,1.214864],[103.8325541,1.2147514],[103.8324307,1.2147406],[103.832255,1.2147922],[103.8322163,1.2148403],[103.8321959,1.2148908],[103.8322096,1.2149315],[103.8322858,1.2149391],[103.8323886,1.2148866],[103.8324963,1.2148573],[103.8326104,1.2148761],[103.8326566,1.2148955],[103.832652,1.2150423],[103.832617,1.2151563],[103.8325783,1.2152542],[103.832436,1.2154486],[103.8322322,1.2155451],[103.8321291,1.2155738],[103.8320231,1.2155612],[103.8319405,1.2155324],[103.8318897,1.2155081],[103.8318728,1.2154419],[103.831917,1.2153306],[103.8320197,1.215185],[103.8320178,1.2151467],[103.8319942,1.2151261],[103.8319648,1.2151166],[103.8319331,1.2151234],[103.8318086,1.2152915],[103.8317386,1.2154479],[103.8316394,1.2159299],[103.8316059,1.2162853],[103.8315972,1.2163677]]],"type":"Polygon"},"properties":{"layer":"land"},"type":"Feature"},{"geometry":{"coordinates":[[[103.8362998,1.2331052],[103.836411,1.2332425],[103.8365295,1.2333888],[103.8366805,1.233289],[103.8367238,1.2332433],[103.8366685,1.2331342],[103.8368178,1.2329705],[103.8368723,1.2327638],[103.8368694,1.2326806],[103.8369461,1.2325475],[103.837047,1.2323987],[103.8371513,1.2322609],[103.8372953,1.2320163],[103.8374146,1.2317753],[103.8375456,1.2315747],[103.837798,1.2312385],[103.8379963,1.2310872],[103.8380404,1.2310291],[103.8380873,1.2310208],[103.8380774,1.231006],[103.8380724,1.2309987],[103.8380725,1.2309576],[103.8382371,1.2307738],[103.8382877,1.2307762],[103.8383888,1.2306944],[103.8384338,1.2307088],[103.8383923,1.230765],[103.8384097,1.2307915],[103.838514,1.2307112],[103.8384711,1.2306906],[103.8385726,1.2306229],[103.8385919,1.2306438],[103.8386979,1.2305531],[103.8387239,1.2304244],[103.8388697,1.2302514],[103.8389026,1.2301791],[103.8389548,1.2301518],[103.8390238,1.2301229],[103.8391,1.230145],[103.8391362,1.2301422],[103.8391519,1.2301179],[103.8391418,1.230094],[103.839111,1.2300736],[103.8391892,1.2299608],[103.8392704,1.2299398],[103.8393481,1.2299263],[103.8393634,1.2298677],[103.8394136,1.22982],[103.8393915,1.2297762],[103.8394276,1.2297562],[103.8394637,1.2297586],[103.8395014,1.2297297],[103.8394726,1.2297105],[103.8394934,1.2296283],[103.8394647,1.2295558],[103.839503,1.2294608],[103.8394845,1.2293976],[103.8395892,1.2292355],[103.8396329,1.2292542],[103.8396545,1.2292247],[103.8396341,1.2291793],[103.8396557,1.2290142],[103.8397365,1.2289748],[103.8397636,1.228849],[103.839684,1.2286323],[103.8395962,1.2285804],[103.8392986,1.2285844],[103.8391571,1.228674],[103.8389207,1.2289389],[103.8386797,1.2291586],[103.8386422,1.2293468],[103.8384763,1.2295109],[103.8381214,1.2297678],[103.8378228,1.2300376],[103.8377344,1.2301498],[103.8377036,1.2302767],[103.83739,1.2307273],[103.8371152,1.2310232],[103.8370249,1.231127],[103.8368544,1.2313338],[103.8367371,1.231687],[103.8365784,1.2321771],[103.8365065,1.2324904],[103.8363941,1.2327993],[103.8363073,1.2330123],[103.8362998,1.2331052]]],"type":"Polygon"},"properties":{"layer":"land"},"type":"Feature"},{"geometry":{"coordinates":[[[103.8241852,1.260097],[103.8243971,1.2602128],[103.8304659,1.2636365],[103.8361342,1.2638392],[103.8424912,1.2578976],[103.8424306,1.2577463],[103.8409563,1.2570708],[103.8405216,1.2568359],[103.8402573,1.2569475],[103.8401516,1.2570356],[103.8399402,1.2569321],[103.8399093,1.256986],[103.8366514,1.2554704],[103.8364348,1.2550073],[103.8363951,1.2548407],[103.8363807,1.2547801],[103.8312563,1.2564682],[103.8312741,1.2565246],[103.8317115,1.2566513],[103.8316902,1.2567213],[103.8316716,1.2567166],[103.8316642,1.2567457],[103.8316583,1.2567433],[103.8316216,1.2567286],[103.8315892,1.2567192],[103.8315532,1.2567129],[103.831526,1.2567109],[103.8315002,1.2567106],[103.8314745,1.2567127],[103.831461,1.2567159],[103.8314503,1.2567201],[103.8314438,1.2567252],[103.8314387,1.2567314],[103.8314356,1.2567377],[103.8314334,1.2567446],[103.8314319,1.2567528],[103.8314317,1.2567606],[103.8314326,1.2567692],[103.8314355,1.2567775],[103.8314417,1.256786],[103.8314505,1.2567945],[103.8314686,1.2568088],[103.8314913,1.2568238],[103.8315157,1.2568384],[103.8315411,1.2568517],[103.8315665,1.256864],[103.8315934,1.256876],[103.8316261,1.256887],[103.8316604,1.2568944],[103.8317716,1.2569136],[103.8318623,1.2571934],[103.8312997,1.257376],[103.8311818,1.257413],[103.8310842,1.2574432],[103.8309589,1.2570812],[103.8308764,1.2571055],[103.8308304,1.257124],[103.8307966,1.2570074],[103.8307416,1.2570234],[103.830732,1.2569859],[103.8306689,1.2570061],[103.8306361,1.2570166],[103.8305512,1.256728],[103.8304793,1.2567481],[103.8304154,1.256766],[103.8304276,1.2566551],[103.8295315,1.2566662],[103.8295314,1.2566146],[103.8296828,1.2566145],[103.8296829,1.2565328],[103.8294797,1.2565347],[103.8292955,1.2566048],[103.8292911,1.2566973],[103.8292715,1.2566436],[103.8286952,1.2568604],[103.8287729,1.2570692],[103.8287086,1.2571024],[103.8286399,1.2571474],[103.8283045,1.2573527],[103.8279169,1.2574929],[103.8272905,1.2575987],[103.8267051,1.2576967],[103.8263996,1.2578295],[103.825941,1.2581049],[103.8256092,1.2583413],[103.8252695,1.2585988],[103.8249495,1.2588835],[103.8247354,1.2591162],[103.8245654,1.2593467],[103.8243801,1.2596516],[103.8241852,1.260097]]],"type":"Polygon"},"properties":{"layer":"land"},"type":"Feature"},{"geometry":{"coordinates":[[[103.8333929,1.2135292],[103.8334367,1.2136202],[103.8335301,1.2137924],[103.8335719,1.2138591],[103.8336257,1.2139199],[103.8337335,1.2139897],[103.8337832,1.2139941],[103.8338316,1.214057],[103.8339024,1.2140603],[103.8339356,1.2140774],[103.8340333,1.2142016],[103.8340536,1.2142544],[103.8340682,1.2143243],[103.8341339,1.2144483],[103.8344108,1.2146772],[103.8344772,1.2148305],[103.834529,1.2149161],[103.8345201,1.2149672],[103.8345348,1.2150307],[103.8345333,1.2150822],[103.834559,1.215089],[103.8345665,1.2151368],[103.8345865,1.2151657],[103.8347528,1.2154371],[103.8348416,1.215533],[103.8349635,1.2155925],[103.8350425,1.2155877],[103.8351551,1.2155525],[103.8353011,1.2154735],[103.8355476,1.2153036],[103.8360932,1.2149391],[103.8362443,1.2148162],[103.8363561,1.2146923],[103.8366367,1.2140415],[103.836632,1.2140218],[103.8366116,1.214004],[103.8365851,1.2140059],[103.8365659,1.2140139],[103.8363648,1.2144624],[103.8362456,1.2145199],[103.8362416,1.2145608],[103.8361891,1.2145523],[103.8359444,1.2144403],[103.8358317,1.2143867],[103.8357352,1.2143223],[103.8354455,1.2139844],[103.8352953,1.2137431],[103.8351987,1.2134427],[103.8351558,1.2133516],[103.8349654,1.21294],[103.8349707,1.2127227],[103.8350109,1.2125645],[103.8350648,1.2125818],[103.8351176,1.2125129],[103.8354824,1.2125933],[103.8354966,1.2125878],[103.8355073,1.212571],[103.835504,1.2125462],[103.8354918,1.212533],[103.834954,1.2124204],[103.8345979,1.2123373],[103.8344263,1.2123298],[103.8343142,1.2123379],[103.8342078,1.212386],[103.8341279,1.2124301],[103.8340254,1.2125308],[103.8339511,1.2126017],[103.8339476,1.212619],[103.8339543,1.2126347],[103.8339734,1.2126401],[103.8339907,1.2126363],[103.8340938,1.2125117],[103.8341747,1.2124432],[103.8341951,1.2124544],[103.8342123,1.2124673],[103.8342452,1.2125122],[103.8342801,1.2126034],[103.8343243,1.2127468],[103.8342887,1.2129534],[103.8341989,1.2130981],[103.8341453,1.2131672],[103.8340977,1.2132093],[103.8339461,1.2132697],[103.8338288,1.2132792],[103.8337074,1.2132389],[103.8336182,1.2131555],[103.8337496,1.2129835],[103.8337502,1.2129706],[103.8337396,1.212953],[103.8337255,1.2129486],[103.833706,1.2129554],[103.8335495,1.2131739],[103.833494,1.2131997],[103.8334693,1.2132382],[103.8333996,1.2133978],[103.8333929,1.2135292]]],"type":"Polygon"},"properties":{"layer":"land"},"type":"Feature"},{"geometry":{"coordinates":[[[103.8579759,1.2248931],[103.8579759,1.2251183],[103.8580188,1.2252256],[103.8580779,1.2253168],[103.858153,1.2253757],[103.8582817,1.2254079],[103.8584943,1.2254152],[103.8585982,1.2254187],[103.8590274,1.2254616],[103.8591186,1.2254776],[103.8593063,1.2253489],[103.859254,1.2253106],[103.8591293,1.2253918],[103.8587699,1.2253757],[103.8587377,1.2252631],[103.8587538,1.2250861],[103.8588342,1.2249091],[103.8589415,1.2247965],[103.8591078,1.2246624],[103.8592632,1.2245914],[103.8595048,1.224523],[103.8596925,1.2245445],[103.859832,1.2245176],[103.8599179,1.2244586],[103.8599508,1.2243786],[103.8599554,1.2243675],[103.8600412,1.2243085],[103.8601968,1.2241851],[103.8604597,1.2240564],[103.8606796,1.2240242],[103.860862,1.2240242],[103.8610283,1.2240671],[103.8612751,1.2241637],[103.8614413,1.224228],[103.8614682,1.2242763],[103.8614843,1.2243621],[103.8614735,1.2244694],[103.8614253,1.2245337],[103.8613233,1.2246195],[103.861216,1.2247],[103.8611248,1.2247697],[103.8610605,1.2247858],[103.8610444,1.2248287],[103.8609371,1.2248984],[103.8608191,1.2249574],[103.8607172,1.2249896],[103.8607279,1.2250271],[103.8608298,1.2250003],[103.8609639,1.224936],[103.861098,1.2248609],[103.8612643,1.224759],[103.8614306,1.2246195],[103.8615272,1.2244694],[103.861588,1.2243999],[103.8616023,1.2243836],[103.8616935,1.2243192],[103.8617632,1.2242227],[103.8618544,1.2241368],[103.8619563,1.2239974],[103.8621977,1.2234825],[103.8624177,1.2229569],[103.8626215,1.2225225],[103.8626859,1.2221739],[103.8627234,1.2219379],[103.8626752,1.2217985],[103.8625142,1.2215089],[103.8621441,1.2209618],[103.8620475,1.2208438],[103.8619188,1.220758],[103.8618061,1.2207527],[103.861672,1.2207956],[103.8615969,1.2208224],[103.8615111,1.2208975],[103.861436,1.2209887],[103.861436,1.2210369],[103.8616345,1.2208653],[103.8617471,1.2208278],[103.8618115,1.2208224],[103.8618973,1.2208331],[103.8619563,1.2208814],[103.8620261,1.2209136],[103.8621173,1.2210101],[103.8622085,1.2211388],[103.8623909,1.2214123],[103.8623694,1.2214821],[103.8623104,1.2215947],[103.8621977,1.2217663],[103.862128,1.2218521],[103.8620368,1.2219433],[103.8618169,1.2221149],[103.8616559,1.2222061],[103.8615111,1.2222597],[103.8614199,1.2223026],[103.8613555,1.2223777],[103.8611892,1.222485],[103.8611356,1.2225279],[103.8610712,1.2225815],[103.8609854,1.2226083],[103.8608191,1.2226405],[103.860685,1.2226405],[103.8605669,1.2226191],[103.860465,1.2225547],[103.8603792,1.2224957],[103.8603095,1.2224314],[103.8606152,1.2220559],[103.860583,1.2220452],[103.8601163,1.2225976],[103.8600949,1.2227049],[103.8600681,1.2227692],[103.8600466,1.2228926],[103.8600681,1.223091],[103.860009,1.2231286],[103.8599339,1.2231447],[103.8598588,1.2231447],[103.8597194,1.2232144],[103.8596872,1.2231661],[103.8596014,1.2232305],[103.8596496,1.2232841],[103.8596228,1.2233324],[103.8595692,1.2233753],[103.8595102,1.2234075],[103.859419,1.2234289],[103.8593492,1.2234128],[103.8592258,1.2234075],[103.8591346,1.223445],[103.8590327,1.2234986],[103.8589741,1.2236302],[103.8589253,1.2236909],[103.8589117,1.2237077],[103.8588969,1.223726],[103.8588808,1.2237463],[103.8583704,1.2243745],[103.8583456,1.2243994],[103.8582366,1.2245202],[103.8581422,1.2246195],[103.8580135,1.2247965],[103.8579759,1.2248931]]],"type":"Polygon"},"properties":{"layer":"land"},"type":"Feature"},{"geometry":{"coordinates":[[[103.8431678,1.2221753],[103.8433443,1.2223823],[103.8435734,1.2226129],[103.8439022,1.2227083],[103.8442884,1.2232575],[103.8451684,1.2234611],[103.8454111,1.2234633],[103.8456362,1.2234323],[103.8458312,1.22338],[103.8462008,1.2232172],[103.8461812,1.2231747],[103.8458345,1.2233317],[103.8457756,1.2232348],[103.8457649,1.22302],[103.8458076,1.2228971],[103.8458855,1.2227371],[103.846012,1.2225928],[103.8461459,1.2224749],[103.8463226,1.2223993],[103.8464545,1.2223613],[103.8466007,1.2223192],[103.8468162,1.2223721],[103.8469903,1.2221758],[103.8476616,1.221936],[103.8478927,1.2219712],[103.8481173,1.2220413],[103.8482661,1.2221794],[103.8482768,1.2222429],[103.848058,1.222349],[103.84808,1.2223957],[103.8483942,1.2222343],[103.8485347,1.2222854],[103.8486303,1.2223134],[103.84868,1.2223276],[103.8486947,1.2223293],[103.8487105,1.2223216],[103.8487274,1.2223135],[103.8487373,1.222334],[103.8487689,1.2223378],[103.848444,1.2215739],[103.8489285,1.2212599],[103.8489718,1.2212312],[103.849233,1.2210641],[103.8497816,1.2207347],[103.8498993,1.2206739],[103.8500071,1.2206366],[103.8501831,1.220534],[103.8502643,1.2205114],[103.8503248,1.2205014],[103.850532,1.220856],[103.850631,1.2210235],[103.8500838,1.2213501],[103.8498116,1.2214822],[103.849823,1.2215065],[103.850097,1.2213743],[103.8508043,1.2209476],[103.8509092,1.2209217],[103.8510036,1.2209085],[103.8510919,1.2209074],[103.851153,1.2209329],[103.8512079,1.220993],[103.8515946,1.2216323],[103.8516157,1.2216364],[103.8517211,1.2215251],[103.85173,1.2215029],[103.8513641,1.2208823],[103.8513421,1.220818],[103.851341,1.2207501],[103.8514314,1.220549],[103.8515204,1.2203268],[103.8516084,1.22014],[103.8516122,1.2199397],[103.8516134,1.2198746],[103.8515667,1.2191097],[103.8515429,1.2191097],[103.851584,1.2198188],[103.8515876,1.2198806],[103.8514804,1.2199134],[103.8513241,1.2199357],[103.8511499,1.2199535],[103.8509403,1.2199366],[103.8507896,1.2199163],[103.8506601,1.2198836],[103.8505102,1.2198297],[103.8505341,1.2197417],[103.8509302,1.2172719],[103.8511421,1.2172185],[103.851273,1.2172381],[103.851406,1.2172968],[103.8514932,1.2173998],[103.8515707,1.2177873],[103.8516007,1.2178203],[103.8515411,1.217062],[103.8516781,1.216279],[103.8516461,1.2162475],[103.8515828,1.2164636],[103.8513778,1.2165479],[103.8512062,1.2164513],[103.8510882,1.2162958],[103.8509755,1.2159633],[103.8509004,1.2155235],[103.8509755,1.2151373],[103.8510613,1.2148853],[103.8511042,1.2147834],[103.8513027,1.2145796],[103.8514261,1.2144723],[103.8515763,1.2143758],[103.8517533,1.2143114],[103.8519465,1.2142846],[103.8520162,1.214306],[103.8520377,1.2143597],[103.852043,1.2146332],[103.8520108,1.2148799],[103.8519733,1.2149711],[103.8519196,1.2150784],[103.8519411,1.2151373],[103.8520001,1.2150998],[103.8520806,1.2149175],[103.8520913,1.2144562],[103.8520859,1.2143329],[103.8520484,1.2142095],[103.8520055,1.214113],[103.8519411,1.2140111],[103.8519894,1.2139306],[103.8519626,1.2138234],[103.8519035,1.2137375],[103.8519304,1.2136271],[103.8519277,1.2134667],[103.8518459,1.2133951],[103.8516441,1.2133721],[103.8515556,1.2134294],[103.8512762,1.2136104],[103.8512062,1.2137483],[103.8511418,1.2138502],[103.8511096,1.2139574],[103.8510667,1.2141237],[103.8509701,1.2142041],[103.8508468,1.2142739],[103.8507824,1.2143382],[103.8507234,1.2143168],[103.8506054,1.2141076],[103.8506483,1.214054],[103.8506,1.2140164],[103.8504552,1.2140862],[103.8504712,1.2141612],[103.8505088,1.2141827],[103.8505678,1.2142578],[103.8505195,1.2143221],[103.8505785,1.2143704],[103.8504981,1.2144669],[103.8503747,1.2145528],[103.8501762,1.2146439],[103.8499455,1.2147244],[103.8498382,1.2147566],[103.8497363,1.2147619],[103.8495968,1.2148316],[103.8495003,1.2149067],[103.8493267,1.2149853],[103.8489762,1.2154227],[103.8488799,1.2154626],[103.8487887,1.2155613],[103.8487139,1.21576],[103.8486916,1.2159893],[103.8486916,1.2161867],[103.8485607,1.2162693],[103.8484778,1.2163894],[103.8483654,1.2163926],[103.84837,1.216527],[103.8482453,1.2166597],[103.8482402,1.2168184],[103.8472925,1.2178343],[103.8468376,1.218392],[103.8462883,1.2189498],[103.8457977,1.2194986],[103.8452755,1.2199366],[103.8444344,1.2206231],[103.8441039,1.2210432],[103.843802,1.221279],[103.843303,1.2218526],[103.8431678,1.2221753]]],"type":"Polygon"},"properties":{"layer":"land"},"type":"Feature"}],"provenance":{"attribution":"\u00a9 OpenStreetMap contributors","licence":"ODbL-1.0","licence_url":"https://www.openstreetmap.org/copyright","package_last_modified":"2026-09-27T03:38:43Z","processing":"bbox clip and union of overlapping chunks; no simplification or topology repair","retrieved_at":"2026-09-27T12:06:34.086122+00:00","source_crs":"EPSG:4326","source_sha256":"03933e9797361d9d9513bd3f2d131a4e862788421351f1cda074bad0aa766814","source_timestamp":"2026-09-27T00:00:00Z","source_url":"https://osmdata.openstreetmap.de/download/land-polygons-split-4326.zip"},"shipnav_source_schema":1,"type":"FeatureCollection"}
