{"bbox":[103.91,1.36,104.02,1.435],"features":[{"geometry":{"coordinates":[[[103.9962859117595,1.435],[103.9977782024719,1.435],[103.9977491,1.4348674],[103.9975445,1.4347467],[103.996987,1.4346901],[103.9962859117595,1.435]]],"type":"Polygon"},"properties":{"layer":"land"},"type":"Feature"},{"geometry":{"coordinates":[[[103.9276842,1.4239395],[103.9277237,1.4239522],[103.9277454,1.4239446],[103.9277518,1.4239178],[103.9277467,1.4238948],[103.927711,1.4238821],[103.9276957,1.4238961],[103.9276842,1.4239395]]],"type":"Polygon"},"properties":{"layer":"land"},"type":"Feature"},{"geometry":{"coordinates":[[[103.987588,1.405471],[103.988116,1.4057349],[103.9891991,1.4059715],[103.9899272,1.4060806],[103.9907373,1.4055347],[103.9905644,1.404925],[103.9899272,1.4049796],[103.9895723,1.4052253],[103.9891991,1.4051343],[103.988744,1.4047795],[103.9881524,1.4047704],[103.9877155,1.4050888],[103.987588,1.405471]]],"type":"Polygon"},"properties":{"layer":"land"},"type":"Feature"},{"geometry":{"coordinates":[[[104.0153928,1.4009958],[104.0156082,1.4016237],[104.0159419,1.4018412],[104.0161763,1.4018951],[104.0167257,1.4018846],[104.0171495,1.4018784],[104.0172827,1.401717],[104.0178637,1.4017947],[104.0188875,1.4018464],[104.02,1.4016775678914788],[104.02,1.3906874005587035],[104.0190825,1.3920915],[104.0185101,1.3929676],[104.0170526,1.3960754],[104.0158495,1.3996421],[104.0153928,1.4009958]]],"type":"Polygon"},"properties":{"layer":"land"},"type":"Feature"},{"geometry":{"coordinates":[[[103.91,1.4328729920078724],[103.91,1.435],[103.91996053194678,1.435],[103.9199613,1.434963],[103.9200735,1.4345403],[103.9203232,1.4345046],[103.9210807,1.4343807],[103.921072,1.4343541],[103.9210711,1.4343387],[103.9210692,1.4343082],[103.9209253,1.4333435],[103.920912,1.4333179],[103.9205709,1.4311695],[103.915519,1.4320066],[103.9121365,1.4325078],[103.9109089,1.4327163],[103.91,1.4328729920078724]]],"type":"Polygon"},"properties":{"layer":"land"},"type":"Feature"},{"geometry":{"coordinates":[[[103.9754447,1.4277743],[103.9754631,1.4283446],[103.9756102,1.4285935],[103.9758442,1.4288271],[103.9763688,1.4290082],[103.9765038,1.4291121],[103.9768556,1.4291968],[103.9772752,1.4291781],[103.9784416,1.4290158],[103.9786737,1.4289452],[103.9788483,1.4288092],[103.9790569,1.4285655],[103.9791154,1.4282932],[103.9790614,1.427998],[103.9791693,1.427731],[103.979098,1.4273199],[103.9789305,1.4268197],[103.9786863,1.4265966],[103.9782808,1.4264628],[103.9775584,1.4262332],[103.9772973,1.4260957],[103.9769994,1.426029],[103.9766237,1.4260633],[103.9763446,1.4261471],[103.9758659,1.4264673],[103.9755567,1.4270624],[103.9754447,1.4277743]]],"type":"Polygon"},"properties":{"layer":"land"},"type":"Feature"},{"geometry":{"coordinates":[[[104.0089828,1.4203923],[104.0090786,1.4222433],[104.0096541,1.4240035],[104.0103372,1.4250694],[104.0112084,1.4260726],[104.0132384,1.4279001],[104.0145589,1.429165],[104.0147481,1.4292848],[104.0149198,1.4293693],[104.0151353,1.4294184],[104.0153827,1.4294353],[104.0155399,1.429457],[104.0156962,1.4295105],[104.0158487,1.4296275],[104.0163155,1.4300512],[104.0164074,1.4302017],[104.0164781,1.4303753],[104.0165243,1.430665],[104.016602,1.4308661],[104.016708,1.4310632],[104.0168689,1.4312629],[104.02,1.4341044660310116],[104.02,1.4086224704649573],[104.0155327,1.4088072],[104.0148407,1.4088325],[104.0145008,1.4088739],[104.0141827,1.4089324],[104.0138718,1.4090272],[104.0136154,1.4091479],[104.0133333,1.4092822],[104.0129033,1.4095973],[104.0126109,1.4098869],[104.012391,1.4101551],[104.0121872,1.4104505],[104.0120005,1.4108201],[104.0112933,1.412882],[104.0114978,1.4130521],[104.0113365,1.4134674],[104.0110926,1.413457],[104.0102853,1.4158198],[104.009531,1.4180162],[104.0097798,1.4181939],[104.0096444,1.4186135],[104.0093324,1.4185946],[104.0089828,1.4203923]]],"type":"Polygon"},"properties":{"layer":"land"},"type":"Feature"},{"geometry":{"coordinates":[[[103.9455914,1.407637],[103.945786,1.4077859],[103.9460077,1.4078161],[103.946194,1.4077957],[103.9465632,1.4076888],[103.9472395,1.4073231],[103.9473054,1.4071413],[103.947244,1.4070663],[103.9471054,1.4070164],[103.947144,1.4069209],[103.9475336,1.4068317],[103.9476667,1.4066619],[103.9477054,1.4063029],[103.9478125,1.4060542],[103.9481511,1.4054521],[103.9484395,1.405126],[103.9484349,1.404992],[103.9484076,1.4048761],[103.9485872,1.4048625],[103.9487054,1.404808],[103.9488092,1.4046884],[103.948894,1.4047262],[103.9490781,1.4046035],[103.9493008,1.4044785],[103.9493758,1.4045376],[103.9496485,1.4043172],[103.9499349,1.4040855],[103.9503599,1.403881],[103.950896,1.4037208],[103.9512417,1.4036379],[103.9513371,1.4035334],[103.951628,1.4033698],[103.9517985,1.4034493],[103.9519099,1.4034834],[103.9521215,1.403419],[103.9524417,1.403288],[103.9525644,1.4031494],[103.9527121,1.4031085],[103.9529053,1.403079],[103.9531125,1.4030523],[103.9532689,1.4028699],[103.9537211,1.402329],[103.9537548,1.4021976],[103.9538888,1.401674],[103.9539509,1.4013791],[103.9539894,1.4012682],[103.954105,1.4012248],[103.9541433,1.4010746],[103.9540803,1.4008978],[103.9540874,1.4006777],[103.9540733,1.4004744],[103.9540538,1.4003047],[103.9540255,1.4001667],[103.9539655,1.4000379],[103.9538459,1.399921],[103.9536183,1.3998195],[103.9533266,1.3998219],[103.9529949,1.3998689],[103.9525833,1.4000218],[103.9522375,1.4002005],[103.9519164,1.4004198],[103.9515788,1.4007303],[103.9510519,1.4013522],[103.950507,1.4017653],[103.9499878,1.4021158],[103.949553,1.4026219],[103.9491316,1.4032244],[103.9489208,1.4036488],[103.948805,1.4040105],[103.9487054,1.404331],[103.9487746,1.4044835],[103.9487164,1.4046281],[103.948534,1.4046753],[103.9483233,1.4048058],[103.947773,1.4053559],[103.9475057,1.4056609],[103.9473768,1.405925],[103.9470792,1.4061157],[103.9469281,1.4062506],[103.9466411,1.4066272],[103.946446,1.4067583],[103.9463271,1.4068868],[103.9461857,1.4071342],[103.9459189,1.407237],[103.9457358,1.4074793],[103.9455914,1.407637]]],"type":"Polygon"},"properties":{"layer":"land"},"type":"Feature"},{"geometry":{"coordinates":[[[103.92801497318159,1.435],[103.99196401210813,1.435],[103.991835,1.4347973],[103.9913016,1.4345656],[103.9911891,1.4345167],[103.9903647,1.4341586],[103.9900802,1.4336436],[103.9893372,1.4332643],[103.9884677,1.432158],[103.9875508,1.4323951],[103.9868236,1.4331853],[103.9857169,1.433691],[103.9841044,1.4329482],[103.984057,1.4324267],[103.9838898,1.4321934],[103.9835511,1.4321106],[103.9829296,1.4320271],[103.9824287,1.4318103],[103.9817173,1.431842],[103.9807194,1.4318984],[103.9804842,1.4317313],[103.9792281,1.430724],[103.9790779,1.4306382],[103.9787614,1.4306006],[103.9772755,1.4306382],[103.9766961,1.4306489],[103.9757734,1.430462],[103.9755779,1.4304625],[103.9752248,1.4306665],[103.9746233,1.4306009],[103.9739144,1.430893],[103.9730389,1.4303528],[103.97213,1.4297919],[103.9724033,1.4293109],[103.9727041,1.4290953],[103.9728952,1.4290913],[103.9729777,1.4290599],[103.9730223,1.4290149],[103.9730119,1.4289598],[103.9727195,1.4287495],[103.9723815,1.4285784],[103.9718709,1.4281466],[103.9715285,1.4278569],[103.9706814,1.4274915],[103.9687727,1.4273868],[103.968029,1.4271681],[103.9652003,1.4268897],[103.9639808,1.427027],[103.963604,1.4271884],[103.9629606,1.4270608],[103.9622025,1.427014],[103.9617716,1.4269019],[103.9616828,1.4269188],[103.9616336,1.4270596],[103.9616227,1.4270907],[103.961236,1.4268539],[103.9611711,1.4266666],[103.9609236,1.4265969],[103.9604766,1.4265488],[103.9600197,1.4263957],[103.9594321,1.4264527],[103.958833,1.4265777],[103.9583211,1.4267626],[103.9575281,1.427123],[103.9564503,1.4276551],[103.9564306,1.4276145],[103.956369,1.4276447],[103.9563363,1.4276607],[103.9561656,1.4275362],[103.9560848,1.4275038],[103.9559882,1.4275333],[103.9559302,1.4276731],[103.9559734,1.4278365],[103.9560712,1.42798],[103.9552251,1.428911],[103.9541647,1.429763],[103.954235,1.4298872],[103.9543967,1.4300325],[103.9541764,1.4301895],[103.9541717,1.429995],[103.9540129,1.4298951],[103.9533076,1.4298696],[103.9518793,1.429895],[103.9498537,1.4302442],[103.948576,1.4309559],[103.9476525,1.4310968],[103.9468891,1.431356],[103.9466684,1.4315996],[103.9460896,1.4318054],[103.9456815,1.4316929],[103.9436073,1.4319497],[103.9426026,1.431826],[103.9418596,1.4316169],[103.9410764,1.4313595],[103.9405207,1.431095],[103.9401618,1.4309546],[103.9398614,1.430917],[103.9389843,1.4311825],[103.9387026,1.4313863],[103.9384934,1.4317161],[103.9383084,1.4323006],[103.9381582,1.4326036],[103.9378309,1.4329093],[103.93732,1.4331305],[103.9368989,1.4332753],[103.936754,1.4334053],[103.9366937,1.4335273],[103.9367567,1.4337311],[103.9359695,1.433774],[103.9354934,1.4337807],[103.9350709,1.4337137],[103.9344272,1.4337807],[103.932952,1.4339282],[103.9324568,1.4338902],[103.9324172,1.4335629],[103.9323109,1.4333906],[103.9322264,1.4334027],[103.9322171,1.4334831],[103.9318237,1.4336553],[103.9319831,1.4341053],[103.9316127,1.4342131],[103.9313267,1.4340303],[103.9310078,1.4342741],[103.9287915,1.4346662],[103.92801497318159,1.435]]],"type":"Polygon"},"properties":{"layer":"land"},"type":"Feature"},{"geometry":{"coordinates":[[[103.91,1.36],[103.91,1.4215687597897826],[103.9106552,1.4216577],[103.9110468,1.4216631],[103.9114224,1.4215809],[103.9125266,1.4212252],[103.9126798,1.421149],[103.9127518,1.421056],[103.9131429,1.4205574],[103.9132296,1.4201803],[103.9132732,1.4201046],[103.9134969,1.4197165],[103.9136092,1.4194568],[103.9136705,1.4191777],[103.9136475,1.4190152],[103.91371,1.4189266],[103.9138032,1.4188296],[103.913876,1.4186763],[103.9139439,1.4185014],[103.9139848,1.4183306],[103.9139918,1.4181321],[103.9139648,1.4178549],[103.9139485,1.4176264],[103.9139424,1.4173161],[103.9139433,1.4172517],[103.913951,1.4171367],[103.9139656,1.4169908],[103.9140967,1.4163367],[103.9145694,1.4163806],[103.9150359,1.4164239],[103.9150468,1.4165468],[103.9150742,1.4166917],[103.9151202,1.4168389],[103.9151594,1.4169334],[103.9151599,1.4169582],[103.9151531,1.4169758],[103.9151523,1.4169987],[103.9152233,1.4170824],[103.9153077,1.4171775],[103.9154312,1.417279],[103.9155547,1.4173462],[103.9156946,1.417393],[103.9158164,1.4174132],[103.9159238,1.4174175],[103.9160476,1.4174033],[103.9161586,1.4173687],[103.916269,1.4173166],[103.9163703,1.4172481],[103.9164764,1.4171499],[103.91666,1.4169552],[103.9169756,1.4165756],[103.9173412,1.4161318],[103.9173466,1.4161072],[103.91734,1.4160836],[103.9174861,1.4159944],[103.9176169,1.4158892],[103.9176134,1.4158684],[103.9175517,1.4157642],[103.9174996,1.4157355],[103.9174978,1.4156997],[103.9175105,1.4156506],[103.9175609,1.415619],[103.9177207,1.4155153],[103.9180367,1.4152723],[103.9181574,1.415126],[103.9182618,1.4150358],[103.9183579,1.4149175],[103.9190279,1.414201],[103.9192791,1.4139193],[103.9193816,1.4138182],[103.9196843,1.4135717],[103.9205625,1.4129678],[103.9206586,1.4128796],[103.9209159,1.4126992],[103.9211337,1.4125843],[103.9215815,1.4124368],[103.9218217,1.4123082],[103.9225216,1.411828],[103.9229893,1.411478],[103.9233367,1.4111841],[103.923549,1.4109702],[103.9236011,1.4109176],[103.9236505,1.4107826],[103.9236202,1.4107056],[103.9236407,1.4106897],[103.9237216,1.4106659],[103.9239298,1.4105145],[103.9241073,1.4103296],[103.9242697,1.4102073],[103.924292,1.4101249],[103.9243006,1.4100804],[103.9249165,1.4095247],[103.925191,1.409312],[103.9253368,1.40918],[103.9255495,1.4089433],[103.9258274,1.4085917],[103.9261963,1.4082316],[103.9265878,1.4078703],[103.9298501,1.404819],[103.9301862,1.4045431],[103.9307095,1.4040913],[103.9307548,1.4041047],[103.9308457,1.4040196],[103.9309806,1.403902],[103.931112,1.4037009],[103.931179,1.4035401],[103.9312381,1.4033309],[103.9312676,1.4031566],[103.9312609,1.4029904],[103.9312434,1.4027933],[103.9312126,1.4026244],[103.9311536,1.4024527],[103.9310685,1.4022765],[103.9309323,1.4020736],[103.930797,1.4019215],[103.9305881,1.401767],[103.9302865,1.4016161],[103.9299344,1.4015293],[103.9301054,1.4005626],[103.9302513,1.3997379],[103.9302941,1.3994959],[103.9305191,1.3994733],[103.9308072,1.3994074],[103.9311842,1.3992417],[103.9314576,1.3990942],[103.9315702,1.3989817],[103.931652,1.3988684],[103.9317815,1.3987775],[103.932468,1.3983832],[103.9330281,1.3979204],[103.9335191,1.3974505],[103.9340955,1.3967977454934353],[103.934197,1.3966828],[103.9348085,1.395735],[103.9349944,1.3953909],[103.9360909,1.3931709],[103.9362271,1.3929307],[103.9363345,1.3927412],[103.9363472,1.3927449],[103.9363567,1.3927439],[103.936363,1.3927393],[103.9364117,1.3925956],[103.9364666,1.3925318],[103.9365639,1.3924186],[103.9366527,1.3923578],[103.9367234,1.3922762],[103.9367646,1.3922319],[103.936818,1.3921904],[103.9368618,1.3921658],[103.9368865,1.3921438],[103.9369061,1.3921151],[103.936914,1.3920817],[103.9369143,1.3920428],[103.9369044,1.3920071],[103.9368815,1.3919814],[103.9368488,1.3919554],[103.9368688,1.3919208],[103.9369612,1.3917622],[103.9369678,1.3917561],[103.9369938,1.391732],[103.9369856,1.3916717],[103.9370727,1.3915136],[103.9371192,1.3914364],[103.9371449,1.3913335],[103.9371753,1.3911524],[103.9372467,1.3910759],[103.9373522,1.390865],[103.9375057,1.390605],[103.9376068,1.3904707],[103.9378031,1.39029],[103.937807,1.3901988],[103.9379813,1.3900994],[103.9380082,1.3900229],[103.9379856,1.3899749],[103.9379219,1.3899151],[103.9385351,1.3896405],[103.938647,1.389609],[103.938778,1.3895509],[103.938975,1.3894611],[103.9391617,1.3893363],[103.9392205,1.389299],[103.9392907,1.3892448],[103.9393898,1.3891821],[103.939442,1.3891392],[103.9394978,1.3890666],[103.939549,1.3890291],[103.9395854,1.3890157],[103.939765,1.3889493],[103.9397711,1.3889482],[103.9399211,1.3889217],[103.9401385,1.3887962],[103.9401995,1.3887085],[103.9402203,1.3887237],[103.9402484,1.3887283],[103.9405773,1.3886054],[103.9405935,1.3885845],[103.9405958,1.3885607],[103.9405819,1.3885404],[103.9405569,1.3885317],[103.9407279,1.3885175],[103.9409524,1.388334],[103.9413472,1.3880019],[103.9415445,1.3879209],[103.9416484,1.3878684],[103.9417361,1.3878077],[103.941885,1.3876916],[103.9420684,1.3875751],[103.9420649,1.387502],[103.9421041,1.3874463],[103.9421834,1.387421],[103.9421903,1.3874409],[103.9422073,1.3874507],[103.9422275,1.3874513],[103.942434,1.3873644],[103.9424479,1.3873482],[103.9424544,1.3873294],[103.9424478,1.3873097],[103.9424306,1.3872976],[103.9424631,1.387243],[103.9425259,1.3872035],[103.9432935,1.3866799],[103.9436373,1.3865104],[103.9437023,1.3864616],[103.9440538,1.3862038],[103.9441789,1.3862392],[103.9442018,1.3862477],[103.9442292,1.3862448],[103.94439,1.3861608],[103.9444075,1.3861424],[103.9444103,1.3861176],[103.9443995,1.3860994],[103.9443785,1.386092],[103.9443533,1.3860964],[103.944307,1.386118],[103.9442948,1.3860665],[103.9443013,1.3860007],[103.9443395,1.3859518],[103.9443997,1.3858875],[103.9450087,1.3853384],[103.9452485,1.3851519],[103.945492,1.3849932],[103.9460434,1.3846633],[103.9467513,1.384266],[103.9468362,1.3842424],[103.946909,1.3842616],[103.9469104,1.3842895],[103.9469304,1.3843097],[103.9469619,1.3843101],[103.947151,1.3841236],[103.9471519,1.3840947],[103.9471308,1.3840739],[103.9472422,1.383991],[103.947419,1.3839145],[103.9476846,1.3837813],[103.9478293,1.3837206],[103.9479321,1.3836938],[103.9481158,1.3835722],[103.948265,1.3835069],[103.9484609,1.383398],[103.9485384,1.3833257],[103.9490378,1.383088],[103.9490722,1.3831016],[103.9490892,1.3831335],[103.9491272,1.3831448],[103.9496526,1.3830342],[103.9501182,1.3829363],[103.9501427,1.382932],[103.9501675,1.3828943],[103.9501542,1.3828751],[103.9501204,1.3828635],[103.9501405,1.3828056],[103.9501922,1.3827571],[103.9503272,1.3826688],[103.9506777,1.3825358],[103.9509683,1.3824434],[103.951277,1.3823779],[103.9515253,1.3823759],[103.9517045,1.382397],[103.9519294,1.3823146],[103.9526834,1.3820913],[103.9528848,1.3820613],[103.9530834,1.3820441],[103.9532486,1.3820213],[103.9534879,1.3819535],[103.9537192,1.3818534],[103.9538837,1.3818086],[103.9541449,1.3817842],[103.954451,1.3817557],[103.9544545,1.3818431],[103.9545431,1.3819179],[103.9546432,1.3819915],[103.9547018,1.3819788],[103.9547456,1.3819213],[103.9547824,1.3818488],[103.954785,1.381715],[103.9549504,1.3816268],[103.9552116,1.3815279],[103.955326,1.381509],[103.9555904,1.3814658],[103.9558602,1.3814413],[103.956032,1.381437],[103.9564581,1.3814503],[103.9570754,1.3815191],[103.957199,1.3815096],[103.9573932,1.3814355],[103.9575123,1.3813795],[103.9580394,1.3812884],[103.9585048,1.3812242],[103.9586181,1.381252],[103.9588583,1.3812384],[103.9589427,1.3812184],[103.9596072,1.3811863],[103.9598207,1.381139],[103.9599515,1.3811355],[103.9603741,1.3811571],[103.9604629,1.3811764],[103.9605481,1.3811927],[103.960583,1.3812273],[103.9606346,1.3812557],[103.9606742,1.3813048],[103.9606795,1.3813549],[103.9606585,1.3813555],[103.9606416,1.3813719],[103.9606392,1.3813935],[103.9606556,1.381418],[103.9606795,1.3814285],[103.9607338,1.3814279],[103.9608324,1.3814399],[103.9608984,1.3814372],[103.9609416,1.3814104],[103.9612666,1.3814118],[103.9615663,1.3814349],[103.961866,1.3814754],[103.96235,1.3815633],[103.9623515,1.3815646],[103.9625586,1.3817547],[103.9628515,1.3817823],[103.9634277,1.3818354],[103.9641033,1.3819732],[103.9644751,1.382129],[103.9650316,1.3818872],[103.9651987,1.3818612],[103.9654476,1.3816871],[103.9656609,1.3815056],[103.9660241,1.3814104],[103.9659779,1.3815372],[103.9662625,1.3817177],[103.9663485,1.381675],[103.9664228,1.3816898],[103.9664268,1.3817784],[103.9664661,1.3818458],[103.9664966,1.3817837],[103.9666351,1.3818438],[103.9667447,1.3818887],[103.9669518,1.3817213],[103.9668884,1.381577],[103.9669134,1.3814552],[103.9668639,1.3813484],[103.9668534,1.3812755],[103.9668976,1.3811683],[103.9670295,1.3811625],[103.9671295,1.3810682],[103.9675589,1.3812064],[103.9674015,1.3818161],[103.9675663,1.3818813],[103.9672423,1.3832696],[103.9673757,1.383353],[103.9678105,1.3836137],[103.968078,1.3837921],[103.9685226,1.3840886],[103.9686745,1.3841899],[103.9687915,1.3842694],[103.9690679,1.3844571],[103.9691823,1.3845347],[103.9693261,1.3846323],[103.9693954,1.3847703],[103.9694133,1.3848059],[103.9702867,1.3857637],[103.9703162,1.3857885],[103.9715909,1.3868572],[103.9716361,1.3867911],[103.9721958,1.3871497],[103.972428,1.3872728],[103.9725605,1.3873431],[103.9728687,1.387487],[103.9727962,1.388732],[103.9727694,1.3888191],[103.9731529,1.3889465],[103.9730564,1.3890551],[103.9731422,1.3891717],[103.9733273,1.3890403],[103.9734807,1.3891064],[103.9735171,1.3892002],[103.9736626,1.3895753],[103.9738031,1.3901467],[103.974103,1.3905084],[103.9743644,1.3906824],[103.9745634,1.3907169],[103.9749259,1.390958],[103.9751385,1.3911963],[103.9752678,1.3913276],[103.975416,1.3915788],[103.9762886,1.392127],[103.9768532,1.3922934],[103.9772468,1.3923314],[103.9774649,1.3923736],[103.9776575,1.392351],[103.9777991,1.3923451],[103.9779268,1.392353],[103.9780408,1.3923805],[103.978186,1.3923989],[103.9790018,1.3925411],[103.9793167,1.3926427],[103.9800865,1.3925669],[103.981158,1.3925756],[103.9814036,1.3925776],[103.9816617,1.39299],[103.9823478,1.3929659],[103.9828606,1.3926152],[103.9830326,1.3926028],[103.9837548,1.3925508],[103.9840941,1.3924669],[103.9844044,1.3924376],[103.984728,1.3924886],[103.9847412,1.392489],[103.9849786,1.3924966],[103.9850209,1.3925504],[103.9850834,1.3926023],[103.9851401,1.3926312],[103.9851997,1.3926302],[103.985217,1.392684],[103.9852582,1.3926753],[103.9852401,1.3926254],[103.9853593,1.392388],[103.9853939,1.3922851],[103.9854151,1.3921808],[103.985866,1.3920237],[103.9865199,1.3918257],[103.9867199,1.3918122],[103.9869612,1.3917688],[103.9872211,1.3915305],[103.9873399,1.3914226],[103.9873678,1.3913965],[103.9876197,1.3911576],[103.9876341,1.3911451],[103.9876476,1.3911329],[103.987844,1.39095],[103.987892,1.3909113],[103.9880179,1.3908195],[103.9881927,1.3907994],[103.988274,1.3907991],[103.9883251,1.3907777],[103.9883498,1.3907644],[103.9883173,1.3906607],[103.9889093,1.3903977312210216],[103.9896113,1.3900859],[103.9901005,1.390055],[103.9901626,1.390221],[103.9901768,1.390297],[103.9902115,1.3907774],[103.9901346,1.3908811],[103.9899995,1.3909253],[103.9899101,1.3909394],[103.9894618,1.3910102],[103.9894231,1.3909916],[103.9894201,1.3909628],[103.9893467,1.3909684],[103.9893485,1.3909979],[103.9889093,1.3909825655028465],[103.9888215,1.3909795],[103.9887579,1.3910132],[103.9886656,1.3910868],[103.9886349,1.3911066],[103.9885911,1.391106],[103.9885546,1.3910753],[103.9884855,1.391085],[103.9884305,1.3910959],[103.9883894,1.3911212],[103.9881894,1.3913698],[103.9881167,1.3914555],[103.9879045,1.3918983],[103.9878068,1.3919991],[103.987801,1.3921004],[103.9877017,1.3922275],[103.9876645,1.3922844],[103.98754,1.3924028],[103.9873734,1.3924994],[103.9872199,1.3925573],[103.9870929,1.3925869],[103.986947,1.3926099],[103.9866624,1.3926391],[103.9865413,1.3926827],[103.986501,1.392729],[103.9864754,1.3928187],[103.9864869,1.3929169],[103.9865152,1.3930293],[103.9865453,1.3931185],[103.9865861,1.3932044],[103.9866452,1.3932963],[103.9866941,1.3933392],[103.9867523,1.3933671],[103.9868419,1.3933885],[103.9869638,1.393391],[103.9870782,1.3933769],[103.9871885,1.3933583],[103.9876097,1.3932238],[103.988165,1.3930118],[103.9884945,1.3928788],[103.9887767,1.3927347],[103.9889093,1.3926489],[103.9901305,1.3921456],[103.9904828,1.3920094],[103.9907622,1.3919014],[103.9913767,1.3916522],[103.992036,1.3912969],[103.9927608,1.3909731],[103.9933658,1.3907453],[103.9936241,1.3906489],[103.9937918,1.3906134],[103.9938889,1.3906267],[103.9939543,1.3906664],[103.9940015,1.3907881],[103.9952181,1.3901363],[103.9952348,1.3901729],[103.9954946,1.3900563],[103.9956447,1.3901655],[103.9966424,1.3898061],[103.9971094,1.3897464],[103.9973263,1.38971],[103.9974462,1.3896807],[103.9975759,1.389642],[103.9977348,1.3895845],[103.9979984,1.3894756],[103.9980871,1.3894329],[103.9986111,1.3891074],[103.9987728,1.389085],[103.9988649,1.3890375],[103.9990392,1.389038],[103.9998875,1.3878038],[103.9999192,1.3877579],[103.9999549,1.3877062],[104.0002856,1.387223],[104.0003455,1.3870538],[104.000646,1.3861587],[104.0008806,1.3853347],[104.0009852,1.385158],[104.0019901,1.384162],[104.0020795,1.3839637],[104.0021007,1.3839046],[104.0020942,1.3838441],[104.0020348,1.3837836],[104.0020586,1.3837739],[104.0020964,1.3837966],[104.0021288,1.3837955],[104.0021727,1.3837763],[104.0022271,1.3837782],[104.0023427,1.383812],[104.0023557,1.3837761],[104.002333,1.3837145],[104.0023341,1.3836205],[104.002479,1.3826001],[104.0025146,1.3824528],[104.0027782,1.3817882],[104.003403,1.3801183],[104.0041194,1.37842],[104.0046892,1.3771799],[104.0052896,1.3760073],[104.0055184,1.3755706],[104.0057428,1.375174],[104.0059659,1.3748311],[104.0062222,1.3745171],[104.0063979,1.3743244],[104.0066195,1.3741381],[104.0070517,1.3738537],[104.0073832,1.3736639],[104.0074743,1.3736264],[104.0075653,1.3736089],[104.0078991,1.3735764],[104.008453,1.3735754],[104.0085523,1.3735769],[104.0088241,1.3735765],[104.0088269,1.3727347],[104.0087932,1.3726546],[104.0087041,1.3726114],[104.0075885,1.3725801],[104.0074831,1.3725689],[104.0073945,1.372538],[104.0073411,1.3724522],[104.0065479,1.3724714],[104.0063418,1.3718558],[104.0060228,1.3709032],[104.0059718,1.3707509],[104.0060224,1.3707043],[104.0060656,1.370538],[104.0060462,1.370404],[104.0060505,1.3703219],[104.0060786,1.3702333],[104.0061478,1.3701685],[104.0062363,1.3700979],[104.0062057,1.3699826],[104.0065398,1.3698422],[104.0089863,1.36887],[104.0101775,1.3687146],[104.0112707,1.3689729],[104.0119098,1.3693497],[104.0122786,1.3698331],[104.0126401,1.3700387],[104.0131535,1.3701984],[104.0137145,1.3701687],[104.0146138,1.3697657],[104.0146852,1.3696881],[104.0146166,1.3695718],[104.0145337,1.3695499],[104.0143587,1.3696443],[104.0143037,1.369466],[104.0143083,1.3692124],[104.0145309,1.3688969],[104.0155066,1.3683283],[104.0164092,1.3679534],[104.0166888,1.3686026],[104.0167615,1.3686805],[104.016865,1.3687274],[104.0165305,1.3679116],[104.0168397,1.367785],[104.0171685,1.3685919],[104.0172096,1.3685637],[104.0172301,1.368512],[104.0169346,1.3677568],[104.0186722,1.3669641],[104.0191751,1.3668333],[104.0194648,1.3668291],[104.0197166,1.3668777],[104.0199344,1.3672753],[104.0199014,1.367297],[104.0198558,1.3672985],[104.0198042,1.3673426],[104.0197975,1.3674189],[104.0198379,1.3674795],[104.019926,1.3674867],[104.02,1.367455078659208],[104.02,1.36],[104.00050017139624,1.36],[103.99949982860376,1.36],[103.91,1.36]]],"type":"Polygon"},"properties":{"layer":"land"},"type":"Feature"},{"geometry":{"coordinates":[[[103.9262218,1.4223853],[103.9262445,1.4224039],[103.9262412,1.4225453],[103.926272,1.4225833],[103.9263116,1.4225897],[103.9263981,1.4225889],[103.9264288,1.4226431],[103.9263924,1.4226665],[103.9263576,1.4226899],[103.9263536,1.4227279],[103.9264991,1.4227796],[103.9265322,1.4228645],[103.9265112,1.4229146],[103.9264749,1.4229162],[103.9264449,1.4229154],[103.9264482,1.4229461],[103.9264433,1.4229679],[103.9263973,1.4229744],[103.9263908,1.4230301],[103.9264239,1.4230576],[103.9264652,1.4230196],[103.9265331,1.4231804],[103.9265633,1.423599],[103.9265467,1.4236619],[103.926485,1.4236768],[103.9264587,1.4237157],[103.926469,1.4237499],[103.9265136,1.4237728],[103.9264736,1.4238128],[103.9264553,1.4238528],[103.9264793,1.4238814],[103.9265044,1.4239088],[103.9265444,1.4238917],[103.9265616,1.4239122],[103.9265468,1.4239384],[103.9265993,1.4239317],[103.926653,1.4238802],[103.9266325,1.4238368],[103.9266005,1.4238025],[103.9265765,1.4237877],[103.9266005,1.4237774],[103.9266553,1.4237751],[103.9266679,1.4237579],[103.9266942,1.4237579],[103.9267068,1.4237991],[103.9267326,1.4237985],[103.9267556,1.4237567],[103.9267822,1.4237545],[103.9268382,1.4237545],[103.926876,1.4237728],[103.926897,1.4237405],[103.9269836,1.4237004],[103.9271039,1.4237132],[103.9273558,1.4237453],[103.9277128,1.4238002],[103.9279265,1.4237877],[103.9281289,1.4238734],[103.9284063,1.4240516],[103.9286479,1.4241979],[103.928952,1.4241945],[103.9292926,1.4243579],[103.9299254,1.4250925],[103.9303841,1.4263455],[103.9319024,1.4261442],[103.9325797,1.4262816],[103.9328545,1.4264642],[103.9330129,1.4267067],[103.9330372,1.427164],[103.9336949,1.4276782],[103.9342966,1.4276505],[103.9345423,1.427581],[103.9347848,1.4274582],[103.9348883,1.4274065],[103.9349934,1.4274145],[103.9351114,1.4273968],[103.9352828,1.4273305],[103.9354396,1.4273143],[103.935556,1.4273499],[103.9357275,1.4273275],[103.9359327,1.4272335],[103.9361477,1.4271204],[103.9364969,1.4269394],[103.9369059,1.4267519],[103.9373178,1.4266997],[103.9378743,1.4265682],[103.9384628,1.4263042],[103.9391547,1.4260343],[103.9397028,1.4257386],[103.9402541,1.4255091],[103.9407746,1.4253184],[103.9424605,1.4246035],[103.9430721,1.4244074],[103.9435911,1.4242017],[103.9440827,1.4239983],[103.9444887,1.4239118],[103.9447908,1.4238956],[103.9451687,1.4239087],[103.9455579,1.4238479],[103.9462272,1.423484],[103.9465323,1.4232039],[103.9468712,1.4229648],[103.9472372,1.4228135],[103.9475766,1.4227112],[103.9480517,1.4224652],[103.9486188,1.4219347],[103.9489322,1.4215867],[103.9488756,1.4214475],[103.9488538,1.4213257],[103.9486972,1.4211234],[103.9485906,1.4208907],[103.948584,1.4206057],[103.9487146,1.4204491],[103.9487276,1.4203904],[103.9485449,1.4203687],[103.9484121,1.4202686],[103.9483904,1.4201686],[103.9483675,1.4200848],[103.9483697,1.4200054],[103.9484839,1.4200446],[103.9485101,1.420149],[103.948571,1.420199],[103.948658,1.4201229],[103.9487668,1.4200489],[103.9488647,1.4199445],[103.9491149,1.4198684],[103.949297,1.4199928],[103.949564,1.4199117],[103.9497547,1.4200071],[103.9498702,1.4198902],[103.9504208,1.4196331],[103.9505828,1.4195558],[103.9508371,1.4195479],[103.9515746,1.4193508],[103.9518463,1.419219],[103.9523101,1.4187795],[103.9525332,1.4186365],[103.9526009,1.4186073],[103.952664,1.4185934],[103.9530717,1.4186211],[103.9531517,1.4186611],[103.9532286,1.4187303],[103.9532701,1.4188334],[103.953304,1.4189718],[103.9534224,1.419124],[103.9535553,1.4191705],[103.9540989,1.4192616],[103.9544386,1.4192855],[103.9546142,1.4192495],[103.9551795,1.4190379],[103.9553897,1.4190717],[103.9554744,1.4189659],[103.9556141,1.4187295],[103.955631,1.4184211],[103.9556794,1.418178],[103.9557987,1.4180474],[103.9559451,1.4179889],[103.9560869,1.4180046],[103.9563256,1.4180969],[103.9564788,1.4180519],[103.956472,1.4178696],[103.9563752,1.4176017],[103.9563932,1.4175071],[103.956481,1.4175364],[103.9565396,1.4176084],[103.9566566,1.4174509],[103.9565666,1.4173158],[103.9565823,1.4172753],[103.9567174,1.4173203],[103.956794,1.4174981],[103.9572579,1.4174396],[103.9575826,1.4173333],[103.9576835,1.4172555],[103.9577777,1.4172738],[103.958656,1.4173023],[103.9587873,1.4173864],[103.9589175,1.4171857],[103.9590075,1.4169943],[103.9591032,1.4168965],[103.9590472,1.4165605],[103.9591603,1.4165682],[103.959269,1.4165755],[103.959417,1.4166245],[103.9595097,1.4170045],[103.9595455,1.4172314],[103.9596547,1.4173227],[103.9599477,1.4172832],[103.9600929,1.4173597],[103.9602721,1.4173533],[103.96071,1.4173943],[103.9610086,1.4174065],[103.961209,1.4174065],[103.9616514,1.4175036],[103.962009,1.4176144],[103.9624179,1.4178172],[103.9627999,1.4180027],[103.9632345,1.4181656],[103.9637433,1.4183802],[103.9641633,1.4185089],[103.9643477,1.4185879],[103.9646521,1.4186573],[103.9649811,1.4187373],[103.9653151,1.4188337],[103.9656803,1.4189373],[103.9658515,1.4189819],[103.9660654,1.4190161],[103.9662767,1.4190191],[103.966715,1.4190332],[103.9670022,1.4190516],[103.9671132,1.4190488],[103.9673765,1.4190421],[103.967628,1.4190742],[103.9678168,1.4190868],[103.967913,1.4191611],[103.9680235,1.4192516],[103.9681235,1.4193009],[103.9681512,1.4193045],[103.9681933,1.4193045],[103.9682363,1.4192936],[103.9682843,1.4192745],[103.9683273,1.4192216],[103.9684088,1.4191523],[103.9685186,1.4191341],[103.9687922,1.4191607],[103.9690444,1.4191853],[103.969137,1.4192062],[103.9693485,1.419291],[103.969549,1.4193912],[103.9695295,1.419466],[103.9696658,1.4194386],[103.9696658,1.4195036],[103.9696625,1.419552],[103.9697473,1.4195916],[103.9697892,1.4195454],[103.9697616,1.4195135],[103.9697726,1.4194816],[103.9698318,1.419471],[103.9702884,1.4196131],[103.9705537,1.4196324],[103.97067,1.419562],[103.9714915,1.4193188],[103.9715165,1.4193935],[103.9715552,1.4194087],[103.9715867,1.4193729],[103.971561,1.4192958],[103.9720569,1.4191926],[103.9725784,1.4191113],[103.9726345,1.419144],[103.9727346,1.4192404],[103.9729132,1.419209],[103.9730049,1.4191318],[103.9730555,1.419057],[103.9730676,1.4189919],[103.9733883,1.4188618],[103.9735178,1.41894],[103.9736674,1.4188714],[103.973591,1.4186939],[103.9736051,1.4184665],[103.9736549,1.4183123],[103.9737983,1.4182469],[103.9738481,1.4181698],[103.973904,1.418148],[103.9739646,1.418136],[103.9740273,1.4181955],[103.9741176,1.4182188],[103.9742516,1.4180755],[103.9742828,1.4180008],[103.9742267,1.4179728],[103.9742937,1.4178388],[103.9743685,1.4177407],[103.9744978,1.4176332],[103.9745975,1.4177189],[103.9746427,1.4178045],[103.9746287,1.4179619],[103.9745788,1.4180288],[103.9745866,1.4180755],[103.9746339,1.4180773],[103.974698,1.417999],[103.9747307,1.4179207],[103.9747226,1.4178511],[103.9748977,1.4178704],[103.9750963,1.4178923],[103.975312,1.4182754],[103.975434,1.4184442],[103.9754865,1.4185169],[103.975541,1.41852],[103.9756064,1.4185007],[103.9761883,1.4182879],[103.976234,1.4182419],[103.9762968,1.4181786],[103.97684,1.4180169],[103.9771959,1.4178481],[103.9779452,1.4176466],[103.9787001,1.4173731],[103.9787978,1.4173275],[103.979095,1.4171218],[103.9793108,1.417077],[103.9794753,1.4170836],[103.9795424,1.4171099],[103.9797372,1.4173344],[103.9800057,1.4174678],[103.9801426,1.4175599],[103.9801899,1.4176217],[103.9802702,1.4176836],[103.9804203,1.4177217],[103.9806939,1.4177569],[103.9809414,1.4178178],[103.9810559,1.4178572],[103.9811586,1.4179059],[103.9813968,1.4179309],[103.9815521,1.4179849],[103.9816061,1.4180335],[103.9816126,1.4180796],[103.9816574,1.4181204],[103.9816894,1.4181297],[103.9817429,1.4180677],[103.9817364,1.4180296],[103.9816627,1.417973],[103.9816916,1.4179059],[103.9818732,1.4178099],[103.9820667,1.4177204],[103.9821904,1.417698],[103.9824299,1.4176836],[103.9838141,1.4178688],[103.9838225,1.417994],[103.9842788,1.4183694],[103.9843763,1.4183624],[103.9845125,1.4184084],[103.9846543,1.4183694],[103.9848101,1.4183528],[103.9849561,1.4183735],[103.9851746,1.4184835],[103.9852765,1.4185324],[103.9853769,1.4186709],[103.9854027,1.418681],[103.9855307,1.4187227],[103.9855836,1.4189341],[103.9857025,1.4191236],[103.9859553,1.4190426],[103.985948,1.4188979],[103.9858868,1.4187505],[103.9863206,1.4183909],[103.9864461,1.4182499],[103.9867298,1.4181052],[103.9870303,1.4181164],[103.9876285,1.4183917],[103.9879957,1.4184724],[103.9881404,1.4184501],[103.9884492,1.4183889],[103.9886996,1.4183834],[103.989142,1.4182415],[103.9896761,1.418112],[103.989777,1.4180335],[103.9907216,1.4171368],[103.9911,1.416837],[103.9912346,1.4167277],[103.9913103,1.4165623],[103.9912963,1.4164166],[103.9912262,1.4163269],[103.9913159,1.4162149],[103.9913804,1.4160663],[103.9914766,1.4158815],[103.9914878,1.4156363],[103.991488,1.415564],[103.9915085,1.4154747],[103.9915931,1.4153392],[103.9916435,1.4152862],[103.9917737,1.4152015],[103.9918782,1.4150356],[103.9918896,1.4149416],[103.9918066,1.4145809],[103.9917549,1.4145278],[103.9917376,1.4144509],[103.9917063,1.4141916],[103.9916527,1.4141314],[103.9915705,1.4140585],[103.9912883,1.4138702],[103.991239,1.4137629],[103.9912146,1.4131832],[103.9912151,1.4130894],[103.9911833,1.4129873],[103.9911183,1.4129184],[103.9910329,1.412845],[103.9909035,1.4125074],[103.9908809,1.4123867],[103.9908981,1.4122356],[103.9908995,1.4121322],[103.9908763,1.4120137],[103.9907708,1.4117079],[103.990747,1.4115913],[103.9907806,1.4113652],[103.9907496,1.4112346],[103.9907019,1.4111922],[103.990613,1.4112161],[103.9905314,1.4111023],[103.9905415,1.4109664],[103.9906539,1.4107751],[103.9908251,1.4105905],[103.9908402,1.4105167],[103.9907383,1.4104058],[103.9907454,1.4102841],[103.9908033,1.4102297],[103.9907748,1.4101458],[103.9907026,1.4100686],[103.9906153,1.4100737],[103.9905616,1.4101441],[103.9904894,1.4100636],[103.9904483,1.4099942],[103.9905172,1.4096951],[103.9905759,1.4096105],[103.9906345,1.4095541],[103.9907297,1.4094361],[103.990756,1.4094268],[103.9908337,1.4093845],[103.9908871,1.4093574],[103.9911605,1.4093301],[103.9912104,1.4093247],[103.9914998,1.4091981],[103.9915698,1.4092005],[103.9915829,1.4091709],[103.9915651,1.4091341],[103.9917301,1.4089442],[103.9920078,1.408701],[103.9921367,1.4084565],[103.9922072,1.4084162],[103.9922986,1.4084031],[103.9923473,1.4083806],[103.9923793,1.4083236],[103.9923787,1.4082651],[103.9923082,1.4080923],[103.9922612,1.4079849],[103.992163,1.4079186],[103.992058,1.4079144],[103.9918616,1.4077894],[103.9917313,1.4076867],[103.9916669,1.4078204],[103.9915049,1.4079429],[103.9912926,1.4079999],[103.9912078,1.4080763],[103.9910442,1.4081216],[103.9908761,1.4080667],[103.990643,1.4079597],[103.990482,1.407834],[103.990246,1.4078842],[103.9902057,1.407927],[103.990162,1.4080427],[103.9901318,1.4081812],[103.9898151,1.4082128],[103.9896987,1.4081493],[103.9894675,1.4081016],[103.989403,1.4080548],[103.9893704,1.4080269],[103.9893628,1.4080228],[103.9893556,1.4080189],[103.989315,1.4079968],[103.9891724,1.4080401],[103.9890843,1.4082354],[103.9889274,1.4082104],[103.9886924,1.4080416],[103.9883218,1.4076744],[103.9885914,1.4073974],[103.9885705,1.4072911],[103.988303,1.4072847],[103.9882245,1.407532],[103.988145,1.4076482],[103.9876464,1.4076765],[103.9870969,1.4077028],[103.9863886,1.4076615],[103.9854754,1.4074804],[103.984436,1.4071038],[103.9841158,1.4068838],[103.9836693,1.4071858],[103.9833008,1.4075844],[103.9828233,1.4076356],[103.9824741,1.4075819],[103.9821615,1.4074041],[103.9819122,1.407321],[103.9812603,1.4071038],[103.9810171,1.4071456],[103.9805437,1.4076255],[103.9800157,1.4078331],[103.9796173,1.4080475],[103.9792547,1.40792],[103.9789056,1.4078831],[103.9787782,1.4079539],[103.9787311,1.4080654],[103.9786468,1.4080605],[103.9785241,1.4080405],[103.9784179,1.4079495],[103.978443,1.4078918],[103.9770922,1.4071785],[103.9770163,1.4071655],[103.9769383,1.4070704],[103.9769689,1.4069737],[103.9768303,1.4068783],[103.9767819,1.4068988],[103.9768489,1.4070183],[103.9767445,1.4071109],[103.9765498,1.4071026],[103.9765567,1.4070134],[103.976516,1.4070155],[103.9764648,1.4070462],[103.976513,1.407118],[103.976487,1.4071424],[103.9764358,1.4071904],[103.976259,1.4073209],[103.9761901,1.4073174],[103.9762056,1.4072082],[103.9762099,1.4071859],[103.9762192,1.4071386],[103.9762234,1.4071168],[103.9762685,1.4070266],[103.9762602,1.4069115],[103.9762103,1.4068475],[103.9760133,1.4066849],[103.9755478,1.406448],[103.975265,1.4063472],[103.974732,1.4060822],[103.9746296,1.4060336],[103.974417,1.4059972],[103.9743862,1.4059845],[103.9741965,1.4059127],[103.9741126,1.4059127],[103.9740387,1.4058859],[103.9739875,1.4059045],[103.9740035,1.4059513],[103.9738457,1.4060419],[103.973692,1.4060505],[103.973518,1.4060345],[103.973443,1.405945],[103.9733781,1.4058675],[103.9734994,1.405844],[103.9735092,1.4057811],[103.9736172,1.4057182],[103.9736963,1.4056174],[103.9738407,1.4054966],[103.9739733,1.4054596],[103.9741255,1.4053579],[103.974128,1.4052336],[103.9740853,1.4051872],[103.9740815,1.405083],[103.9740983,1.4049866],[103.9741909,1.4048537],[103.9742051,1.4046615],[103.9743025,1.4045737],[103.9742835,1.4044147],[103.974179,1.4042936],[103.9740855,1.4041441],[103.9740223,1.4040136],[103.9734696,1.4034221],[103.9733113,1.4032352],[103.9733363,1.403158],[103.9732579,1.4030987],[103.9732032,1.4030979],[103.973125,1.4032589],[103.9730824,1.4032961],[103.9730407,1.4033301],[103.9729492,1.4033261],[103.9728211,1.4032814],[103.9726957,1.4032053],[103.972395,1.4029706],[103.9721333,1.4027079],[103.9719837,1.4026248],[103.9719339,1.4025334],[103.9719044,1.4025077],[103.9715492,1.402494],[103.9712955,1.4024144],[103.9709424,1.4022345],[103.970714,1.402118],[103.9707472,1.4019901],[103.9706674,1.4019552],[103.9705806,1.4019819],[103.9705162,1.4020017],[103.9703749,1.4019054],[103.970335,1.4019718],[103.9703899,1.4020699],[103.9704414,1.4020782],[103.970458,1.4020732],[103.9705029,1.4021496],[103.9704697,1.4022078],[103.9703842,1.4023849],[103.9702594,1.4024868],[103.970247,1.4025467],[103.9701905,1.4025517],[103.9701256,1.4025118],[103.9700309,1.4025185],[103.9699378,1.4026248],[103.9698847,1.402555],[103.9697808,1.4025294],[103.9697425,1.4025259],[103.9695157,1.4025517],[103.9693678,1.4025251],[103.9691231,1.4024354],[103.9690869,1.4024221],[103.9690587,1.4023058],[103.9689246,1.402204],[103.9689157,1.4021396],[103.9689656,1.4021014],[103.9689722,1.4020267],[103.9688974,1.4019403],[103.9688459,1.4019652],[103.9687959,1.4019402],[103.9687794,1.4018672],[103.968821,1.4017558],[103.9687196,1.4016495],[103.9686432,1.4016495],[103.9682569,1.4012047],[103.9680332,1.4011361],[103.9678205,1.401156],[103.9676044,1.4011145],[103.9673298,1.4009347],[103.966785,1.4010014],[103.9666591,1.4010445],[103.9666193,1.4010019],[103.9664693,1.4010314],[103.9663696,1.4009749],[103.9662599,1.4009949],[103.9661086,1.4009467],[103.9659182,1.4009632],[103.9658582,1.4008883],[103.9657328,1.4009174],[103.9657298,1.4010122],[103.965635,1.4010443],[103.9655765,1.4010812],[103.9655271,1.4010837],[103.9654211,1.4010388],[103.9653782,1.4010575],[103.9652572,1.4010195],[103.9651477,1.4009466],[103.9650592,1.4011635],[103.9650183,1.4011042],[103.9649056,1.4011202],[103.9648145,1.4010797],[103.9647582,1.4011187],[103.9647436,1.4010852],[103.9644576,1.4009715],[103.962624,1.4002443],[103.9624387,1.4001718],[103.9623206,1.4001256],[103.9620347,1.4000477],[103.9620186,1.4000747],[103.9619934,1.4001173],[103.9618179,1.4000993],[103.9617847,1.4001458],[103.9617353,1.4001431],[103.9617121,1.400076],[103.9613972,1.4000477],[103.9610462,1.4000064],[103.9608914,1.4000193],[103.9608424,1.3999832],[103.9607734,1.3999411],[103.9606843,1.3999156],[103.960617,1.3998956],[103.960546,1.399852],[103.9604714,1.3998174],[103.960408,1.3997816],[103.9603368,1.3997556],[103.9602531,1.3997501],[103.9601785,1.3997847],[103.9601203,1.3998101],[103.96006,1.3997999],[103.9599961,1.3997798],[103.9599438,1.3997883],[103.9598801,1.3998265],[103.959831,1.3997865],[103.9597559,1.3996916],[103.9597401,1.3996192],[103.9596564,1.3996319],[103.9595563,1.3996064],[103.9594486,1.3996379],[103.9593562,1.3997319],[103.9592889,1.3997665],[103.9590596,1.3998083],[103.9588886,1.3998502],[103.9588377,1.3998592],[103.9587904,1.3998138],[103.9587467,1.3998047],[103.9587085,1.3998192],[103.9586576,1.3998083],[103.9586305,1.399769],[103.9586083,1.3997229],[103.9585411,1.3996483],[103.9584502,1.3995464],[103.9583974,1.3994591],[103.9583368,1.3993968],[103.9582519,1.3993627],[103.9581645,1.3993755],[103.9581682,1.3994482],[103.9581773,1.3995555],[103.9582162,1.3997323],[103.9581409,1.3997174],[103.9580484,1.3997218],[103.9580798,1.3999158],[103.957952,1.4000631],[103.9579597,1.4002231],[103.9577955,1.4003098],[103.9577518,1.4007873],[103.9576206,1.4011651],[103.9574371,1.4016514],[103.9573418,1.4018083],[103.9570578,1.4018738],[103.9570821,1.4019563],[103.9570218,1.4019865],[103.9570061,1.4020768],[103.9569824,1.4021696],[103.9568585,1.4022223],[103.9567344,1.4023961],[103.9567379,1.4025841],[103.9566074,1.4025322],[103.9559697,1.4028147],[103.9557776,1.4027679],[103.9556522,1.4029513],[103.9555914,1.4029481],[103.9554789,1.4030388],[103.9552388,1.4035637],[103.9552785,1.4037797],[103.9551516,1.4037545],[103.9550859,1.403898],[103.9550029,1.4039643],[103.9550265,1.4040957],[103.9549199,1.4042014],[103.954743,1.4043527],[103.9546521,1.4043873],[103.9546817,1.4045207],[103.9546612,1.4045784],[103.9546942,1.4046135],[103.9545917,1.4046768],[103.9546561,1.4047685],[103.9543998,1.4048392],[103.9544352,1.4049948],[103.9544365,1.4050496],[103.9544098,1.4050626],[103.9544066,1.4050926],[103.954379,1.4051209],[103.9543255,1.4051436],[103.954226,1.4052956],[103.9540418,1.4053908],[103.9539658,1.405441],[103.9539255,1.4054989],[103.9538424,1.4054901],[103.9536838,1.4055259],[103.953665,1.4055782],[103.9535996,1.4055895],[103.9535219,1.405567],[103.9534875,1.4055882],[103.9534662,1.4055593],[103.9533863,1.4055818],[103.9533126,1.4056562],[103.9533227,1.4057254],[103.9533402,1.4057511],[103.9533343,1.4057943],[103.9533045,1.4058004],[103.9533066,1.4058719],[103.9532822,1.4059369],[103.9531889,1.4060185],[103.9530973,1.406044],[103.9531001,1.4060936],[103.952845,1.4061756],[103.952592,1.4062569],[103.9524638,1.4061263],[103.9523259,1.4060425],[103.9523199,1.4059861],[103.9522067,1.4059013],[103.9521488,1.4059349],[103.9520269,1.4058603],[103.951809,1.4058138],[103.9514231,1.4059582],[103.9511879,1.4058402],[103.9510021,1.4058734],[103.9507941,1.4057751],[103.9507253,1.4059252],[103.9506773,1.4059808],[103.950615,1.4060531],[103.9505315,1.4061103],[103.9504896,1.4061985],[103.9502996,1.4064581],[103.9501681,1.4067391],[103.9500539,1.4070246],[103.9500087,1.4070016],[103.9498871,1.4071023],[103.9498844,1.4071825],[103.9497293,1.4072601],[103.9496019,1.4073532],[103.9495107,1.4074387],[103.9494213,1.4074729],[103.9494199,1.4075222],[103.9494186,1.4075709],[103.9492255,1.4077998],[103.9491628,1.4077979],[103.9490949,1.4078393],[103.9489472,1.4081085],[103.9488719,1.4081514],[103.9488472,1.4083833],[103.9488985,1.4086645],[103.9489241,1.4087997],[103.9488776,1.4089819],[103.948813,1.4090104],[103.9486652,1.4093456],[103.9485392,1.4095064],[103.9487008,1.4097459],[103.9486,1.4098409],[103.9482398,1.4098444],[103.948102,1.4098618],[103.947486,1.4098143],[103.9472717,1.4098678],[103.9467598,1.410176],[103.9463245,1.4103408],[103.9460396,1.4105014],[103.9456907,1.4108977],[103.9454918,1.4111257],[103.9450603,1.411386],[103.9448474,1.4113385],[103.9446972,1.4112264],[103.9444957,1.4112416],[103.9441934,1.4113727],[103.9440099,1.411313],[103.9436763,1.4113841],[103.9434444,1.4115457],[103.9434577,1.4116635],[103.9430071,1.4119106],[103.942163,1.4123022],[103.941933,1.412304],[103.9416688,1.4124522],[103.9414825,1.4125833],[103.9413418,1.4126803],[103.9412258,1.412589],[103.9411479,1.4126099],[103.9410414,1.412532],[103.9407791,1.4126004],[103.9407259,1.4126613],[103.940781,1.4131934],[103.9407201,1.4133454],[103.9406004,1.4135507],[103.9405357,1.4136723],[103.940467,1.413711],[103.9403761,1.4137806],[103.9401422,1.4139802],[103.9400301,1.4140429],[103.9399189,1.414146],[103.9394631,1.4146275],[103.9390356,1.4149261],[103.9387164,1.4149462],[103.9384325,1.4149616],[103.9381315,1.4149793],[103.9380816,1.4149931],[103.9380554,1.415073],[103.9380229,1.4150967],[103.9380064,1.4150196],[103.937973,1.4150207],[103.9379517,1.415048],[103.9379608,1.4151059],[103.9379236,1.4151272],[103.9378794,1.4151413],[103.9378493,1.4151067],[103.9377878,1.4151051],[103.9377848,1.4151368],[103.9377368,1.4151698],[103.9377089,1.4151533],[103.9376724,1.4152076],[103.9376482,1.415216],[103.9375945,1.4151935],[103.9375525,1.4152108],[103.9375033,1.4152578],[103.9373959,1.4152116],[103.9367813,1.4153432],[103.9366711,1.4153082],[103.9365904,1.4153544],[103.936512,1.4153533],[103.9364301,1.4152643],[103.9363482,1.4153355],[103.9362585,1.4152442],[103.9361468,1.4153408],[103.9360461,1.4153968],[103.9359818,1.415461],[103.9355778,1.4155239],[103.9355193,1.4154606],[103.9352875,1.415483],[103.9350382,1.4156587],[103.934891,1.4156444],[103.9347091,1.4156219],[103.934603,1.4156937],[103.9344271,1.4156873],[103.9342492,1.4157588],[103.9342574,1.4159529],[103.9340816,1.4159468],[103.9339713,1.4161225],[103.9339856,1.4162983],[103.9341205,1.4165537],[103.9341675,1.4169909],[103.9342922,1.41723],[103.934378,1.4172463],[103.934423,1.4174772],[103.934378,1.41761],[103.9342124,1.4177612],[103.9341981,1.4178389],[103.9340319,1.4179026],[103.9339529,1.4179329],[103.9339181,1.417892],[103.9336974,1.4178777],[103.933634,1.4179043],[103.9335291,1.417874],[103.9333908,1.4178675],[103.9333029,1.4178103],[103.9333683,1.4177531],[103.9333315,1.4177101],[103.9330168,1.4176775],[103.9323065,1.4176723],[103.9320098,1.4176011],[103.9314448,1.4172831],[103.9308608,1.4173733],[103.9307089,1.4172997],[103.9302366,1.4177701],[103.9294689,1.4187471],[103.9295264,1.4188354],[103.9294784,1.4189131],[103.9293887,1.4188954],[103.9292401,1.4188274],[103.9290566,1.4187348],[103.9290571,1.4186543],[103.9290228,1.4186538],[103.9289872,1.4186533],[103.9289863,1.4187326],[103.9289357,1.4187914],[103.9289268,1.4188004],[103.9289195,1.4188078],[103.9288579,1.4188628],[103.9287856,1.418908],[103.9286993,1.4189514],[103.928605,1.418964],[103.9284383,1.4190199],[103.9283554,1.4190909],[103.9282783,1.4191881],[103.9282931,1.4192561],[103.9282777,1.4193635],[103.9283474,1.4194144],[103.9282828,1.4195166],[103.9281674,1.4194578],[103.9281056,1.4195412],[103.9280987,1.4195505],[103.9280932,1.4195579],[103.9280639,1.4196018],[103.9281148,1.4196629],[103.927913,1.420264],[103.9275404,1.4204521],[103.9274729,1.4205755],[103.9273929,1.4208532],[103.9273317,1.4212726],[103.927138,1.4215709],[103.9269208,1.4218211],[103.9267356,1.4220726],[103.9265836,1.4222268],[103.926475,1.4222966],[103.9263895,1.4222898],[103.9263512,1.4222826],[103.9263148,1.4223037],[103.9262291,1.4223085],[103.9262218,1.4223853]]],"type":"Polygon"},"properties":{"layer":"land"},"type":"Feature"}],"provenance":{"attribution":"\u00a9 OpenStreetMap contributors","licence":"ODbL-1.0","licence_url":"https://www.openstreetmap.org/copyright","package_last_modified":"2026-09-27T03:38:43Z","processing":"bbox clip and union of overlapping chunks; no simplification or topology repair","retrieved_at":"2026-09-27T12:06:10.817802+00:00","source_crs":"EPSG:4326","source_sha256":"03933e9797361d9d9513bd3f2d131a4e862788421351f1cda074bad0aa766814","source_timestamp":"2026-09-27T00:00:00Z","source_url":"https://osmdata.openstreetmap.de/download/land-polygons-split-4326.zip"},"shipnav_source_schema":1,"type":"FeatureCollection"}
